geometry,address,lokasi,coords,m_lon,m_lat,state,district,parlimen,dun_x,label,Lokasi,dun_y,h_lat,h_lon,distance,status
POINT (100.32277 5.409320000000037),"Kampung Makam, George Town, Timur Laut, Pulau Pinang",Kampung Makam Haji Kassim,"100.32277, 5.409320000000037",100.32277,5.40932,Pulau Pinang,Timur Laut,P.050 Jelutong,N.29 Datok Keramat,hotspot,"SJK (T) JALAN SUNGAI, FLAT SUNGAI PINANGJLN SUNGAI",N.30 Sungai Pinang,5.404585395,100.3233647,0.531,FALSE
POINT (100.3140300000001 5.404410000000041),"Kampung Dodol, George Town, Timur Laut, Pulau Pinang",Kampung Dodol,"100.3140300000001, 5.404410000000041",100.31403,5.40441,Pulau Pinang,Timur Laut,P.050 Jelutong,N.29 Datok Keramat,hotspot,"SJK (T) JALAN SUNGAI, FLAT SUNGAI PINANGJLN SUNGAI",N.30 Sungai Pinang,5.404585395,100.3233647,1.034,FALSE
POINT (100.31539 5.406510000000026),Masjid Jamek Hashim Yahaya,Kampung Masjid Hashim Yahya,"100.31539, 5.406510000000026",100.31539,5.40651,Pulau Pinang,Timur Laut,P.050 Jelutong,N.29 Datok Keramat,hotspot,"SJK (T) JALAN SUNGAI, FLAT SUNGAI PINANGJLN SUNGAI",N.30 Sungai Pinang,5.404585395,100.3233647,0.908,FALSE
POINT (100.3140734163665 5.409581694947581),"Jalan P. Ramlee, Taman Seri Kijang, George Town, Timur Laut, 10460, Pulau Pinang",Jalan P.Ramlee,"100.3140734163665, 5.409581694947581",100.3140734,5.409581695,Pulau Pinang,Timur Laut,P.050 Jelutong,N.29 Datok Keramat,hotspot,"SJK (T) JALAN SUNGAI, FLAT SUNGAI PINANGJLN SUNGAI",N.30 Sungai Pinang,5.404585395,100.3233647,1.169,FALSE
POINT (100.3147515070017 5.410768050340871),"Lilitan Stadium, George Town, Timur Laut, 10350, Pulau Pinang",Lilitan Stadium (Astaka Makan),"100.3147515070017, 5.410768050340871",100.3147515,5.41076805,Pulau Pinang,Timur Laut,P.050 Jelutong,N.29 Datok Keramat,hotspot,"SJK (T) JALAN SUNGAI, FLAT SUNGAI PINANGJLN SUNGAI",N.30 Sungai Pinang,5.404585395,100.3233647,1.175,FALSE
POINT (100.3131674194301 5.412475710169735),"Lorong Kulit, George Town, Timur Laut, 10350, Pulau Pinang",Lorong Kulit,"100.3131674194301, 5.412475710169735",100.3131674,5.41247571,Pulau Pinang,Timur Laut,P.050 Jelutong,N.29 Datok Keramat,hotspot,"SJK (T) JALAN SUNGAI, FLAT SUNGAI PINANGJLN SUNGAI",N.30 Sungai Pinang,5.404585395,100.3233647,1.43,FALSE
POINT (100.3216351972366 5.410863519774855),"Lorong Singgora, Kampung Makam, George Town, Timur Laut, 10150, Pulau Pinang",Jalan Singgora,"100.3216351972366, 5.410863519774855",100.3216352,5.41086352,Pulau Pinang,Timur Laut,P.050 Jelutong,N.29 Datok Keramat,hotspot,"SJK (T) JALAN SUNGAI, FLAT SUNGAI PINANGJLN SUNGAI",N.30 Sungai Pinang,5.404585395,100.3233647,0.724,FALSE
POINT (100.3204778597989 5.412485196052684),"Jalan Dato Keramat, George Town, Timur Laut, 10150, Pulau Pinang",Jalan Dato Keramat,"100.3204778597989, 5.412485196052684",100.3204779,5.412485196,Pulau Pinang,Timur Laut,P.050 Jelutong,N.29 Datok Keramat,hotspot,"SJK (T) JALAN SUNGAI, FLAT SUNGAI PINANGJLN SUNGAI",N.30 Sungai Pinang,5.404585395,100.3233647,0.935,FALSE
POINT (100.3197500000001 5.408110000000022),"Kampung Rawa, Jelutong, Timur Laut, Pulau Pinang",Lintang Kg. Rawa,"100.3197500000001, 5.408110000000022",100.31975,5.40811,Pulau Pinang,Timur Laut,P.050 Jelutong,N.30 Sungai Pinang,hotspot,"SJK (T) JALAN SUNGAI, FLAT SUNGAI PINANGJLN SUNGAI",N.30 Sungai Pinang,5.404585395,100.3233647,0.56,TRUE
POINT (100.3064536446093 5.41471332329523),"Jalan York, Dhoby Ghaut, George Town, Timur Laut, 10450, Pulau Pinang",Jalan York (Doby Ghaut),"100.3064536446093, 5.41471332329523",100.3064536,5.414713323,Pulau Pinang,Timur Laut,P.050 Jelutong,N.29 Datok Keramat,hotspot,"S.K. ST. XAVIER, JALAN MASJID NEGERIKAMPUNG BARU, AYER ITAM",N.24 Kebun Bunga,5.408645491,100.2996521,1.011,FALSE
POINT (100.3123884303507 5.409889428104374),"Lintang P. Ramlee, George Town, Timur Laut, 10350, Pulau Pinang",Lintang P.Ramlee,"100.3123884303507, 5.409889428104374",100.3123884,5.409889428,Pulau Pinang,Timur Laut,P.050 Jelutong,N.29 Datok Keramat,hotspot,"SJK (T) JALAN SUNGAI, FLAT SUNGAI PINANGJLN SUNGAI",N.30 Sungai Pinang,5.404585395,100.3233647,1.351,FALSE
POINT (100.3102969207417 5.410886632235363),"Jalan Langkawi, Taman Rampas, George Town, Timur Laut, 10460, Pulau Pinang",Jalan Langkawi,"100.3102969207417, 5.410886632235363",100.3102969,5.410886632,Pulau Pinang,Timur Laut,P.050 Jelutong,N.29 Datok Keramat,hotspot,"S.K. ST. XAVIER, JALAN MASJID NEGERIKAMPUNG BARU, AYER ITAM",N.24 Kebun Bunga,5.408645491,100.2996521,1.204,FALSE
POINT (100.3227558254253 5.409867119912986),"Jalan Patani, Kampung Makam, George Town, Timur Laut, 10150, Pulau Pinang",Jalan Patani (Blkg IPD DTL),"100.3227558254253, 5.409867119912986",100.3227558,5.40986712,Pulau Pinang,Timur Laut,P.050 Jelutong,N.29 Datok Keramat,hotspot,"SJK (T) JALAN SUNGAI, FLAT SUNGAI PINANGJLN SUNGAI",N.30 Sungai Pinang,5.404585395,100.3233647,0.591,FALSE
POINT (100.3140734163665 5.409581694947581),"Jalan P. Ramlee, Taman Seri Kijang, George Town, Timur Laut, 10460, Pulau Pinang",Jalan P. Ramlee,"100.3140734163665, 5.409581694947581",100.3140734,5.409581695,Pulau Pinang,Timur Laut,P.050 Jelutong,N.29 Datok Keramat,hotspot,"SJK (T) JALAN SUNGAI, FLAT SUNGAI PINANGJLN SUNGAI",N.30 Sungai Pinang,5.404585395,100.3233647,1.169,FALSE
POINT (100.3040897604208 5.416321686932361),"Jalan Piggot, George Town, Timur Laut, 10350, Pulau Pinang",Jalan Piggot,"100.3040897604208, 5.416321686932361",100.3040898,5.416321687,Pulau Pinang,Timur Laut,P.050 Jelutong,N.29 Datok Keramat,hotspot,"S.K. ST. XAVIER, JALAN MASJID NEGERIKAMPUNG BARU, AYER ITAM",N.24 Kebun Bunga,5.408645491,100.2996521,0.985,FALSE
POINT (100.3121343844158 5.417161708189334),"Jalan Hospital, George Town, Timur Laut, 10350, Pulau Pinang",Jalan Hospital Pulau Pinang (Pintu B),"100.3121343844158, 5.417161708189334",100.3121344,5.417161708,Pulau Pinang,Timur Laut,P.048 Bukit Bendera,N.25 Pulau Tikus,hotspot,"S.K. ST. XAVIER, JALAN MASJID NEGERIKAMPUNG BARU, AYER ITAM",N.24 Kebun Bunga,5.408645491,100.2996521,1.675,TRUE
POINT (100.3040334261174 5.429587057125282),"Lebuhraya Rose, Pulau Tikus, George Town, Timur Laut, 10350, Pulau Pinang",Jalan Rose,"100.3040334261174, 5.429587057125282",100.3040334,5.429587057,Pulau Pinang,Timur Laut,P.048 Bukit Bendera,N.25 Pulau Tikus,hotspot,"S.M.J.K PEREMPUAN CHINA, BAGAN JEMAL",N.25 Pulau Tikus,5.432438222,100.3019036,0.395,TRUE
POINT (100.3029100000001 5.415850000000034),"Taman Scotland, George Town, Timur Laut, Pulau Pinang",Taman Scotland,"100.3029100000001, 5.415850000000034",100.30291,5.41585,Pulau Pinang,Timur Laut,P.050 Jelutong,N.29 Datok Keramat,hotspot,"S.K. ST. XAVIER, JALAN MASJID NEGERIKAMPUNG BARU, AYER ITAM",N.24 Kebun Bunga,5.408645491,100.2996521,0.879,FALSE
POINT (100.3080800000001 5.416710000000023),Seri Mutiara,Seri Mutiara (Kediaman TYT),"100.3080800000001, 5.416710000000023",100.30808,5.41671,Pulau Pinang,Timur Laut,P.050 Jelutong,N.29 Datok Keramat,hotspot,"S.K. ST. XAVIER, JALAN MASJID NEGERIKAMPUNG BARU, AYER ITAM",N.24 Kebun Bunga,5.408645491,100.2996521,1.294,FALSE
POINT (100.2990500000001 5.409570000000031),"Taman Lumba Kuda, Air Hitam, Timur Laut, Pulau Pinang",Taman Lumba Kuda,"100.2990500000001, 5.409570000000031",100.29905,5.40957,Pulau Pinang,Timur Laut,P.048 Bukit Bendera,N.24 Kebun Bunga,hotspot,"S.K. ST. XAVIER, JALAN MASJID NEGERIKAMPUNG BARU, AYER ITAM",N.24 Kebun Bunga,5.408645491,100.2996521,0.123,TRUE
POINT (100.2960678717513 5.408623983160481),"Jalan Goh Guan Ho, Taman Goh Chuan Ho, Air Hitam, Timur Laut, 11400, Pulau Pinang",Jalan Goh Guan Ho,"100.2960678717513, 5.408623983160481",100.2960679,5.408623983,Pulau Pinang,Timur Laut,P.048 Bukit Bendera,N.23 Air Putih,hotspot,"SJK (C ) SHANG WU, JLN AYER ITAMKAMPUNG MELAYUFARLIM",N.24 Kebun Bunga,5.410759995,100.294001,0.33,FALSE
POINT (100.3096300551247 5.398490049596177),"Jalan Van Praagh & Solok Van Praagh, Taman Desa Green, Jelutong, Timur Laut, 11600, Pulau Pinang",Jalan Van Pragh & Solok Van Pragh,"100.3096300551247, 5.398490049596177",100.3096301,5.39849005,Pulau Pinang,Timur Laut,P.050 Jelutong,N.31 Batu Lancang,hotspot,"S.K. ST. XAVIER, JALAN MASJID NEGERIKAMPUNG BARU, AYER ITAM",N.24 Kebun Bunga,5.408645491,100.2996521,1.58,FALSE
POINT (100.3073750717134 5.397425044978704),"Lintang Hijau, Taman Green Lane, Jelutong, Timur Laut, 11600, Pulau Pinang",Jalan/Lorong Hijau,"100.3073750717134, 5.397425044978704",100.3073751,5.397425045,Pulau Pinang,Timur Laut,P.050 Jelutong,N.31 Batu Lancang,hotspot,"S.K. ST. XAVIER, JALAN MASJID NEGERIKAMPUNG BARU, AYER ITAM",N.24 Kebun Bunga,5.408645491,100.2996521,1.512,FALSE
POINT (100.2941186122049 5.34896161183825),"Jalan Kampung Madrasah, Taman Pekaka, Gelugor, Timur Laut, 11700, Pulau Pinang",Kampung Madrasah,"100.2941186122049, 5.34896161183825",100.2941186,5.348961612,Pulau Pinang,Timur Laut,P.052 Bayan Baru,N.35 Batu Uban,hotspot,"SEKOLAH KEBANGSAAN SUNGAI NIBONG, SUNGAI NIBONG BESAR, SUNGAI NIBONG PANTAI",N.36 Pantai Jerejak,5.332312536,100.2953982,1.857,TRUE
POINT (100.3181086245702 5.389809170729512),"Jalan Pokok Asam, Jelutong, Timur Laut, 11600, Pulau Pinang",Pokok Asam,"100.3181086245702, 5.389809170729512",100.3181086,5.389809171,OUT_OF_BOUNDS,OUT_OF_BOUNDS,P.050 Jelutong,N.30 Sungai Pinang,hotspot,"SJK (T) JALAN SUNGAI, FLAT SUNGAI PINANGJLN SUNGAI",N.30 Sungai Pinang,5.404585395,100.3233647,1.743,TRUE
POINT (100.3140300000001 5.404410000000041),"Kampung Dodol, George Town, Timur Laut, Pulau Pinang",Kampung Dodol,"100.3140300000001, 5.404410000000041",100.31403,5.40441,Pulau Pinang,Timur Laut,P.050 Jelutong,N.29 Datok Keramat,hotspot,"SJK (T) JALAN SUNGAI, FLAT SUNGAI PINANGJLN SUNGAI",N.30 Sungai Pinang,5.404585395,100.3233647,1.034,FALSE
POINT (100.31539 5.406510000000026),Masjid Jamek Hashim Yahaya,Kampung Masjid Hashim Yahya,"100.31539, 5.406510000000026",100.31539,5.40651,Pulau Pinang,Timur Laut,P.050 Jelutong,N.29 Datok Keramat,hotspot,"SJK (T) JALAN SUNGAI, FLAT SUNGAI PINANGJLN SUNGAI",N.30 Sungai Pinang,5.404585395,100.3233647,0.908,FALSE
POINT (100.3140734163665 5.409581694947581),"Jalan P. Ramlee, Taman Seri Kijang, George Town, Timur Laut, 10460, Pulau Pinang",Jalan P Ramlee,"100.3140734163665, 5.409581694947581",100.3140734,5.409581695,Pulau Pinang,Timur Laut,P.050 Jelutong,N.29 Datok Keramat,hotspot,"SJK (T) JALAN SUNGAI, FLAT SUNGAI PINANGJLN SUNGAI",N.30 Sungai Pinang,5.404585395,100.3233647,1.169,FALSE
POINT (100.2782653530099 5.38920680407536),"Jalan Tun Mohamed Salleh Ismael, Bandar Baru Air Itam (Farlim), Air Hitam, Timur Laut, 11500, Pulau Pinang",Jalan Ismail Che Mat,"100.2782653530099, 5.38920680407536",100.2782654,5.389206804,Pulau Pinang,Timur Laut,P.051 Bukit Gelugor,N.34 Paya Terubong,hotspot,"DEWAN RUKUN TETENGGA, JLN ZOOKAMPUNG MELAYUFARLIM",N.33 Air Itam,5.39854,100.28557,1.316,TRUE
POINT (100.3079300794322 5.363485042640697),"Changkat Minden Lorong 3, Minden Heights, Gelugor, Timur Laut, 11700, Pulau Pinang",Changkat Minden (Lorong 3 & 6),"100.3079300794322, 5.363485042640697",100.3079301,5.363485043,Pulau Pinang,Timur Laut,P.052 Bayan Baru,N.35 Batu Uban,hotspot,"SRK. MINDEN HEIGHTS, TMN. BROWN, TUN SARDON,KAMPONG INDIA.",N.35 Batu Uban,5.36616,100.31033,0.399,TRUE
POINT (100.3038650659397 5.387930025061557),"Jalan Masjid Negeri, Island Glades, Gelugor, Timur Laut, 11700, Pulau Pinang",Persimpangan Jalan Masjid Negeri/ Jalan Air Itam,"100.3038650659397, 5.387930025061557",100.3038651,5.387930025,Pulau Pinang,Timur Laut,P.050 Jelutong,N.32 Seri Delima,hotspot,"S.M.K AIR ITAM, JLN AYER ITAMKAMPUNG MELAYUFARLIM",N.33 Air Itam,5.3978451,100.2932301,1.613,FALSE
POINT (100.2959623218634 5.399497081823761),"Lebuhraya Thean Tek, Island Park, George Town, Timur Laut, 11600, Pulau Pinang",Lebuhraya Thein Teik,"100.2959623218634, 5.399497081823761",100.2959623,5.399497082,Pulau Pinang,Timur Laut,P.051 Bukit Gelugor,N.33 Air Itam,hotspot,"S.M.K AIR ITAM, JLN AYER ITAMKAMPUNG MELAYUFARLIM",N.33 Air Itam,5.3978451,100.2932301,0.354,TRUE
POINT (100.2833240459522 5.40667767327877),"Jalan Khoo HYE Keat, Air Hitam, Timur Laut, 11500, Pulau Pinang",Jalan Hye Keat,"100.2833240459522, 5.40667767327877",100.283324,5.406677673,Pulau Pinang,Timur Laut,P.048 Bukit Bendera,N.23 Air Putih,hotspot,"DEWAN RUKUN TETENGGA, JLN ZOOKAMPUNG MELAYUFARLIM",N.33 Air Itam,5.39854,100.28557,0.938,FALSE
POINT (100.3354676626428 5.419192424381444),"Jalan Masjid, George Town, Timur Laut, 10200, Pulau Pinang",Kg. Masjid Jalan Zoo,"100.3354676626428, 5.419192424381444",100.3354677,5.419192424,Pulau Pinang,Timur Laut,P.049 Tanjong,N.26 Padang Kota,hotspot,"SEKOLAH MENENGAH KEBANGSAAN RAJA TUN UDA, JALAN TENGAH, SG TIRAM, BUKIT GEDUNG",N.26 Padang Kota,5.424053946,100.3272178,1.061,TRUE
POINT (100.2751751105651 5.384575042587045),"Jalan Paya Terubong, Paya Terubong, Timur Laut, 11060, Pulau Pinang",Jalan Paya Terubong,"100.2751751105651, 5.384575042587045",100.2751751,5.384575043,Pulau Pinang,Timur Laut,P.051 Bukit Gelugor,N.34 Paya Terubong,hotspot,"DEWAN RUKUN TETENGGA, JLN ZOOKAMPUNG MELAYUFARLIM",N.33 Air Itam,5.39854,100.28557,1.933,TRUE
POINT (100.2751751105651 5.384575042587045),"Jalan Paya Terubong, Paya Terubong, Timur Laut, 11060, Pulau Pinang",Persiaran Paya Terubong,"100.2751751105651, 5.384575042587045",100.2751751,5.384575043,Pulau Pinang,Timur Laut,P.051 Bukit Gelugor,N.34 Paya Terubong,hotspot,"DEWAN RUKUN TETENGGA, JLN ZOOKAMPUNG MELAYUFARLIM",N.33 Air Itam,5.39854,100.28557,1.933,TRUE
POINT (100.2959623218634 5.399497081823761),"Lebuhraya Thean Tek, Island Park, George Town, Timur Laut, 11600, Pulau Pinang",Lebuhraya Thean Teik,"100.2959623218634, 5.399497081823761",100.2959623,5.399497082,Pulau Pinang,Timur Laut,P.051 Bukit Gelugor,N.33 Air Itam,hotspot,"S.M.K AIR ITAM, JLN AYER ITAMKAMPUNG MELAYUFARLIM",N.33 Air Itam,5.3978451,100.2932301,0.354,TRUE
POINT (100.3020091601602 5.346307540965564),"Jalan Mutiara, Kampung Dua Bukit, Bayan Lepas, Timur Laut, 11900, Pulau Pinang",Kampung Mutiara,"100.3020091601602, 5.346307540965564",100.3020092,5.346307541,Pulau Pinang,Timur Laut,P.052 Bayan Baru,N.35 Batu Uban,hotspot,"SEKOLAH KEBANGSAAN SUNGAI NIBONG, SUNGAI NIBONG BESAR, SUNGAI NIBONG PANTAI",N.36 Pantai Jerejak,5.332312536,100.2953982,1.72,TRUE
POINT (100.2848964240001 5.406148588000065),"Timur Laut, Pulau Pinang",Kampung Kubur,"100.2848964240001, 5.406148588000065",100.2848964,5.406148588,Pulau Pinang,Timur Laut,P.048 Bukit Bendera,N.23 Air Putih,hotspot,"DEWAN RUKUN TETENGGA, JLN ZOOKAMPUNG MELAYUFARLIM",N.33 Air Itam,5.39854,100.28557,0.849,FALSE
POINT (102.24161 2.20366000000007),Kampung Chetti,Kampung Chetti,"102.24161, 2.20366000000007",102.24161,2.20366,Melaka,Melaka Tengah,P.138 Kota Melaka,N.20 Kota Laksamana,hotspot,"DEWAN JKKK SG KECHIL, 1. KG SUNGAI KECHIL DANKAWASAN SEKITARNYA.",N.20 Pengkalan Berangan,5.03732,103.29449,336.05,FALSE
POINT (100.248 5.467640000000074),Flat Pinang Emas,Flat Pinang Emas,"100.248, 5.467640000000074",100.248,5.46764,Pulau Pinang,Timur Laut,P.048 Bukit Bendera,N.22 Tanjong Bunga,hotspot,"S.K. BATU FERINGGHI, BATU FERINGGHI",N.40 Telok Bahang,5.464982579,100.2359175,1.37,FALSE
POINT (100.2923619692689 5.354324353418288),"Halaman Bukit Gambir, Universiti Sains Malaysia, Gelugor, Timur Laut, 11800, Pulau Pinang",Halaman Bukit Gambir,"100.2923619692689, 5.354324353418288",100.292362,5.354324353,Pulau Pinang,Timur Laut,P.051 Bukit Gelugor,N.34 Paya Terubong,hotspot,"SMK BUKIT GAMBIR, BUKIT GAMBIR GELUGOR",N.34 Paya Terubong,5.370830428,100.2967197,1.898,TRUE
POINT (100.30517 5.358590000000049),USM,USM,"100.30517, 5.358590000000049",100.30517,5.35859,Pulau Pinang,Timur Laut,P.052 Bayan Baru,N.35 Batu Uban,hotspot,"SRK. MINDEN HEIGHTS, TMN. BROWN, TUN SARDON,KAMPONG INDIA.",N.35 Batu Uban,5.36616,100.31033,1.017,TRUE
POINT (100.30242 5.352820000000065),Sri Saujana,Taman Sri Saujana,"100.30242, 5.352820000000065",100.30242,5.35282,Pulau Pinang,Timur Laut,P.052 Bayan Baru,N.35 Batu Uban,hotspot,"SRK. MINDEN HEIGHTS, TMN. BROWN, TUN SARDON,KAMPONG INDIA.",N.35 Batu Uban,5.36616,100.31033,1.723,TRUE
POINT (100.2848964240001 5.406148588000065),"Timur Laut, Pulau Pinang",Tapak Pesta,"100.2848964240001, 5.406148588000065",100.2848964,5.406148588,Pulau Pinang,Timur Laut,P.048 Bukit Bendera,N.23 Air Putih,hotspot,"DEWAN RUKUN TETENGGA, JLN ZOOKAMPUNG MELAYUFARLIM",N.33 Air Itam,5.39854,100.28557,0.849,FALSE
POINT (100.293581705585 5.335831899030643),"Lebuh Nipah, Taman Bukit Jambul, Bayan Lepas, Timur Laut, 11900, Pulau Pinang",Lebuh Nipah,"100.293581705585, 5.335831899030643",100.2935817,5.335831899,Pulau Pinang,Timur Laut,P.052 Bayan Baru,N.35 Batu Uban,hotspot,"SEKOLAH KEBANGSAAN SUNGAI NIBONG, SUNGAI NIBONG BESAR, SUNGAI NIBONG PANTAI",N.36 Pantai Jerejak,5.332312536,100.2953982,0.44,TRUE
POINT (100.2848964240001 5.406148588000065),"Timur Laut, Pulau Pinang",Flat Hamna,"100.2848964240001, 5.406148588000065",100.2848964,5.406148588,Pulau Pinang,Timur Laut,P.048 Bukit Bendera,N.23 Air Putih,hotspot,"DEWAN RUKUN TETENGGA, JLN ZOOKAMPUNG MELAYUFARLIM",N.33 Air Itam,5.39854,100.28557,0.849,FALSE
POINT (100.29954 5.344980000000021),"Kampung Dua Bukit, Bayan Lepas, Timur Laut, Pulau Pinang",Kg. Dua Bukit JPJ Batu Uban,"100.29954, 5.344980000000021",100.29954,5.34498,Pulau Pinang,Timur Laut,P.052 Bayan Baru,N.35 Batu Uban,hotspot,"SEKOLAH KEBANGSAAN SUNGAI NIBONG, SUNGAI NIBONG BESAR, SUNGAI NIBONG PANTAI",N.36 Pantai Jerejak,5.332312536,100.2953982,1.481,TRUE
POINT (100.2978900000001 5.343700000000069),Klinik Kesihatan Sungai Dua,Klinik Kesihatan Sg. Dua,"100.2978900000001, 5.343700000000069",100.29789,5.3437,Pulau Pinang,Timur Laut,P.052 Bayan Baru,N.35 Batu Uban,hotspot,"SEKOLAH KEBANGSAAN SUNGAI NIBONG, SUNGAI NIBONG BESAR, SUNGAI NIBONG PANTAI",N.36 Pantai Jerejak,5.332312536,100.2953982,1.296,TRUE
POINT (100.2749200000001 5.337100000000021),"Relau, Bayan Lepas, Timur Laut, Pulau Pinang",Kawasan Relau,"100.2749200000001, 5.337100000000021",100.27492,5.3371,Pulau Pinang,Barat Daya,P.051 Bukit Gelugor,N.34 Paya Terubong,hotspot,"SEKOLAH MENENGAH KEBANGSAAN SUNGAI ARA, KAMPUNG BARU SUNGAI ARA",N.36 Pantai Jerejak,5.323346261,100.2829178,1.767,TRUE
POINT (100.2745700628844 5.339200049796702),"Jalan Paya Terubong, Relau, Bayan Lepas, Timur Laut, 11900, Pulau Pinang",Jalan Paya Terubong (SK Seri Relau),"100.2745700628844, 5.339200049796702",100.2745701,5.33920005,Pulau Pinang,Timur Laut,P.051 Bukit Gelugor,N.34 Paya Terubong,hotspot,"SEKOLAH MENENGAH KEBANGSAAN SUNGAI ARA, KAMPUNG BARU SUNGAI ARA",N.36 Pantai Jerejak,5.323346261,100.2829178,1.99,TRUE
POINT (100.2751751105651 5.384575042587045),"Jalan Paya Terubong, Paya Terubong, Timur Laut, 11060, Pulau Pinang",Persiaran Paya Terubong,"100.2751751105651, 5.384575042587045",100.2751751,5.384575043,Pulau Pinang,Timur Laut,P.051 Bukit Gelugor,N.34 Paya Terubong,hotspot,"DEWAN RUKUN TETENGGA, JLN ZOOKAMPUNG MELAYUFARLIM",N.33 Air Itam,5.39854,100.28557,1.933,TRUE
POINT (100.2749200000001 5.337100000000021),"Relau, Bayan Lepas, Timur Laut, Pulau Pinang",Sekolah Sri Relau,"100.2749200000001, 5.337100000000021",100.27492,5.3371,Pulau Pinang,Barat Daya,P.051 Bukit Gelugor,N.34 Paya Terubong,hotspot,"SEKOLAH MENENGAH KEBANGSAAN SUNGAI ARA, KAMPUNG BARU SUNGAI ARA",N.36 Pantai Jerejak,5.323346261,100.2829178,1.767,TRUE
POINT (100.3069642826197 5.441334322326751),"Jalan Tanjung Tokong, Kampung Masjid Bagan, George Town, Timur Laut, 10470, Pulau Pinang","Jalan Tanjung Tokong ( Caltex & Kampung Masjid,….etc) ","100.3069642826197, 5.441334322326751",100.3069643,5.441334322,Pulau Pinang,Timur Laut,P.048 Bukit Bendera,N.25 Pulau Tikus,hotspot,"SEK KEB TANJUNG TOKONG, KG TANJONG TOKONG, KG MASJID",N.25 Pulau Tikus,5.439316825,100.3035977,0.435,TRUE
POINT (100.3037241590671 5.434855513815826),"Jalan Bagan Jermal, Kampung Masjid Bagan, George Town, Timur Laut, 10470, Pulau Pinang",Jalan Bagan Jermal ,"100.3037241590671, 5.434855513815826",100.3037242,5.434855514,Pulau Pinang,Timur Laut,P.048 Bukit Bendera,N.25 Pulau Tikus,hotspot,"S.M.J.K PEREMPUAN CHINA, BAGAN JEMAL",N.25 Pulau Tikus,5.432438222,100.3019036,0.336,TRUE
POINT (100.3044297314553 5.447149839040599),"Jalan Siput Lala, Kampung Raya Baru, Tanjong Tokong, Timur Laut, 10470, Pulau Pinang",Jalan Siput Lala (MBPP) *kawasan Lain,"100.3044297314553, 5.447149839040599",100.3044297,5.447149839,Pulau Pinang,Timur Laut,P.048 Bukit Bendera,N.25 Pulau Tikus,hotspot,"SEK KEB TANJUNG TOKONG, KG TANJONG TOKONG, KG MASJID",N.25 Pulau Tikus,5.439316825,100.3035977,0.876,TRUE
POINT (100.3044297314553 5.447149839040599),"Jalan Siput Lala, Kampung Raya Baru, Tanjong Tokong, Timur Laut, 10470, Pulau Pinang",Jalan Siput Lala (JKR) ,"100.3044297314553, 5.447149839040599",100.3044297,5.447149839,Pulau Pinang,Timur Laut,P.048 Bukit Bendera,N.25 Pulau Tikus,hotspot,"SEK KEB TANJUNG TOKONG, KG TANJONG TOKONG, KG MASJID",N.25 Pulau Tikus,5.439316825,100.3035977,0.876,TRUE
POINT (100.2848964240001 5.406148588000065),"Timur Laut, Pulau Pinang","Lebuh Kimberly, Lebuh Carnarvon, Jalan Pintal Tali, Lebuh Cintra","100.2848964240001, 5.406148588000065",100.2848964,5.406148588,Pulau Pinang,Timur Laut,P.048 Bukit Bendera,N.23 Air Putih,hotspot,"DEWAN RUKUN TETENGGA, JLN ZOOKAMPUNG MELAYUFARLIM",N.33 Air Itam,5.39854,100.28557,0.849,FALSE
POINT (100.2848964240001 5.406148588000065),"Timur Laut, Pulau Pinang",Jalan Anson (depan market) & Lebuh Mc Nair,"100.2848964240001, 5.406148588000065",100.2848964,5.406148588,Pulau Pinang,Timur Laut,P.048 Bukit Bendera,N.23 Air Putih,hotspot,"DEWAN RUKUN TETENGGA, JLN ZOOKAMPUNG MELAYUFARLIM",N.33 Air Itam,5.39854,100.28557,0.849,FALSE
POINT (100.32231007252 5.420665044999062),"Jalan Khaw Sim Bee & Lebuhraya Pykett, George Town, Timur Laut, 10400, Pulau Pinang",Jalan Khaw Sim Bee & Lebuhraya Pykett,"100.32231007252, 5.420665044999062",100.3223101,5.420665045,Pulau Pinang,Timur Laut,P.049 Tanjong,N.26 Padang Kota,hotspot,"SEKOLAH MENENGAH KEBANGSAAN RAJA TUN UDA, JALAN TENGAH, SG TIRAM, BUKIT GEDUNG",N.26 Padang Kota,5.424053946,100.3272178,0.661,TRUE
POINT (100.2108963667474 5.459120043301539),"Jalan Nelayan, Pekan Teluk Bahang, Mukim 2 Teluk Bahang, Barat Daya, 11050, Pulau Pinang",Kg. Nelayan Telok Bahang,"100.2108963667474, 5.459120043301539",100.2108964,5.459120043,Pulau Pinang,Barat Daya,P.053 Balik Pulau,N.40 Telok Bahang,hotspot,"DEWAN MBPP TELUK BAHANG, KAMPUNG NELAYAN, KAMPUNG BANGSAL RAWA, KAMPUNG TELUK AWAK",N.40 Telok Bahang,5.460129423,100.2060326,0.55,TRUE
POINT (100.2095100000001 5.455050000000028),"Kampung Teluk Awak, Mukim 1 Pantai Aceh, Barat Daya, Pulau Pinang",Kg. Telok Awak,"100.2095100000001, 5.455050000000028",100.20951,5.45505,Pulau Pinang,Barat Daya,P.053 Balik Pulau,N.40 Telok Bahang,hotspot,"DEWAN MBPP TELUK BAHANG, KAMPUNG NELAYAN, KAMPUNG BANGSAL RAWA, KAMPUNG TELUK AWAK",N.40 Telok Bahang,5.460129423,100.2060326,0.683,TRUE
POINT (100.2084595772327 5.459390762927275),"Jalan Nelayan, Kampung Nelayan, Mukim 1 Pantai Aceh, Barat Daya, 11050, Pulau Pinang",Jalan Nelayan,"100.2084595772327, 5.459390762927275",100.2084596,5.459390763,Pulau Pinang,Barat Daya,P.053 Balik Pulau,N.40 Telok Bahang,hotspot,"DEWAN MBPP TELUK BAHANG, KAMPUNG NELAYAN, KAMPUNG BANGSAL RAWA, KAMPUNG TELUK AWAK",N.40 Telok Bahang,5.460129423,100.2060326,0.281,TRUE
POINT (100.2108963667474 5.459120043301539),"Jalan Nelayan, Pekan Teluk Bahang, Mukim 2 Teluk Bahang, Barat Daya, 11050, Pulau Pinang",Kg. Nelayan Telok Bahang,"100.2108963667474, 5.459120043301539",100.2108964,5.459120043,Pulau Pinang,Barat Daya,P.053 Balik Pulau,N.40 Telok Bahang,hotspot,"DEWAN MBPP TELUK BAHANG, KAMPUNG NELAYAN, KAMPUNG BANGSAL RAWA, KAMPUNG TELUK AWAK",N.40 Telok Bahang,5.460129423,100.2060326,0.55,TRUE
POINT (100.2060326248759 5.460129423203306),"Jalan Hassan Abbas, Teluk Bahang, Mukim 1 Pantai Aceh, Barat Daya, 11050, Pulau Pinang",Flat Jalan Hj.  Hassan Abbas,"100.2060326248759, 5.460129423203306",100.2060326,5.460129423,Pulau Pinang,Barat Daya,P.053 Balik Pulau,N.40 Telok Bahang,hotspot,"DEWAN MBPP TELUK BAHANG, KAMPUNG NELAYAN, KAMPUNG BANGSAL RAWA, KAMPUNG TELUK AWAK",N.40 Telok Bahang,5.460129423,100.2060326,0,TRUE
POINT (100.2141700000001 5.457730000000026),"Pekan Teluk Bahang, Mukim 2 Teluk Bahang, Barat Daya, Pulau Pinang",Pekan Telok Bahang,"100.2141700000001, 5.457730000000026",100.21417,5.45773,Pulau Pinang,Barat Daya,P.053 Balik Pulau,N.40 Telok Bahang,hotspot,"DEWAN MBPP TELUK BAHANG, KAMPUNG NELAYAN, KAMPUNG BANGSAL RAWA, KAMPUNG TELUK AWAK",N.40 Telok Bahang,5.460129423,100.2060326,0.939,TRUE
POINT (100.207915647954 5.458318234782887),"Medan Nelayan, Kampung Nelayan, Mukim 1 Pantai Aceh, Barat Daya, 11050, Pulau Pinang",Medan Nelayan,"100.207915647954, 5.458318234782887",100.2079156,5.458318235,Pulau Pinang,Barat Daya,P.053 Balik Pulau,N.40 Telok Bahang,hotspot,"DEWAN MBPP TELUK BAHANG, KAMPUNG NELAYAN, KAMPUNG BANGSAL RAWA, KAMPUNG TELUK AWAK",N.40 Telok Bahang,5.460129423,100.2060326,0.29,TRUE
POINT (100.21389 5.382460000000037),"Kampung Sungai Rusa, Balik Pulau, Barat Daya, Pulau Pinang",Kg. Sg. Rusa,"100.21389, 5.382460000000037",100.21389,5.38246,Pulau Pinang,Barat Daya,P.053 Balik Pulau,N.40 Telok Bahang,hotspot,"SEKOLAH KEBANGSAAN SUNGAI PINANG, SUNGAI PINANG, PANTAI ACHEH",N.40 Telok Bahang,5.397355035,100.2226797,1.921,TRUE
POINT (100.2129200000001 5.385190000000023),"Kampung Sungai Pinang, Balik Pulau, Barat Daya, Pulau Pinang",Kg. Sg. Pinang,"100.2129200000001, 5.385190000000023",100.21292,5.38519,Pulau Pinang,Barat Daya,P.053 Balik Pulau,N.40 Telok Bahang,hotspot,"SEKOLAH KEBANGSAAN SUNGAI PINANG, SUNGAI PINANG, PANTAI ACHEH",N.40 Telok Bahang,5.397355035,100.2226797,1.731,TRUE
POINT (100.2105200000001 5.39826000000005),"Kampung Bukit Kecil, Balik Pulau, Barat Daya, Pulau Pinang",Kg. Bukit Kechil,"100.2105200000001, 5.39826000000005",100.21052,5.39826,Pulau Pinang,Barat Daya,P.053 Balik Pulau,N.40 Telok Bahang,hotspot,"SEKOLAH JENIS KEBANGSAAN (C) YU CHYE, KUALA SUNGAI PINANG",N.40 Telok Bahang,5.39506,100.20028,1.188,TRUE
POINT (100.2002800000001 5.395060000000058),"Kuala Sungai Pinang, Balik Pulau, Barat Daya, Pulau Pinang",Jalan Kuala Sungai Pinang (Perumahan Perda),"100.2002800000001, 5.395060000000058",100.20028,5.39506,Pulau Pinang,Barat Daya,P.053 Balik Pulau,N.40 Telok Bahang,hotspot,"SEKOLAH JENIS KEBANGSAAN (C) YU CHYE, KUALA SUNGAI PINANG",N.40 Telok Bahang,5.39506,100.20028,0,TRUE
POINT (103.2121900000001 4.270370000000071),Klinik Kesihatan Air Puteh,Kg. Belakang Klinik Kesihatan Air Putih,"103.2121900000001, 4.270370000000071",103.21219,4.27037,Terengganu,Kemaman,P.040 Kemaman,N.32 Air Putih,hotspot,"DEWAN JKKK SG KECHIL, 1. KG SUNGAI KECHIL DANKAWASAN SEKITARNYA.",N.20 Pengkalan Berangan,5.03732,103.29449,85.767,FALSE
POINT (100.21547 5.367060000000038),"Taman Manggis Indah, Balik Pulau, Barat Daya, Pulau Pinang",Taman Manggis,"100.21547, 5.367060000000038",100.21547,5.36706,Pulau Pinang,Barat Daya,P.053 Balik Pulau,N.40 Telok Bahang,hotspot,"SEKOLAH MENENGAH KEBANGSAAN TELUK BAHANG, TELUK BAHANG, TELUK AWAK",N.39 Pulau Betong,5.35226,100.23039,2.332,TRUE
POINT (100.2170899214932 5.371749718427746),"Jalan Sungai Air Putih, Bandar Baru Sungai Air Putih, Balik Pulau, Barat Daya, 11010, Pulau Pinang",Balai Bomba Sungai Air Putih,"100.2170899214932, 5.371749718427746",100.2170899,5.371749718,Pulau Pinang,Barat Daya,P.053 Balik Pulau,N.39 Pulau Betong,hotspot,"SEKOLAH MENENGAH KEBANGSAAN TELUK BAHANG, TELUK BAHANG, TELUK AWAK",N.39 Pulau Betong,5.35226,100.23039,2.62,TRUE
POINT (100.2280000000001 5.343510000000038),"Taman Seri Indah, Balik Pulau, Barat Daya, Pulau Pinang",Taman Seri Indah,"100.2280000000001, 5.343510000000038",100.228,5.34351,Pulau Pinang,Barat Daya,P.053 Balik Pulau,N.39 Pulau Betong,hotspot,"SEKOLAH MENENGAH KEBANGSAAN PONDOK UPEH, PONDOK UPEH",N.39 Pulau Betong,5.33953269,100.222818,0.724,TRUE
POINT (100.2304030473808 5.340667561339263),"Lintang Pondok Upih, Taman Seri Indah, Balik Pulau, Barat Daya, 11000, Pulau Pinang",Lintang Pondok Upeh,"100.2304030473808, 5.340667561339263",100.230403,5.340667561,Pulau Pinang,Barat Daya,P.053 Balik Pulau,N.39 Pulau Betong,hotspot,"SEKOLAH MENENGAH KEBANGSAAN PONDOK UPEH, PONDOK UPEH",N.39 Pulau Betong,5.33953269,100.222818,0.849,TRUE
POINT (100.2046700000001 5.33812000000006),"Kampung Sungai Burung, Balik Pulau, Barat Daya, Pulau Pinang",Kg. Sungai Burong,"100.2046700000001, 5.33812000000006",100.20467,5.33812,Pulau Pinang,Barat Daya,P.053 Balik Pulau,N.39 Pulau Betong,hotspot,"SEKOLAH KEBANGSAAN PULAU BETONG, PULAU BETONG, KAMPUNG PERLIS, KUALA PULAU BETONG",N.39 Pulau Betong,5.33421999,100.2158668,1.313,TRUE
POINT (100.7128300000001 3.970500000000072),Kampung Sungai Burong,Kg. Sg. Burong Darat,"100.7128300000001, 3.970500000000072",100.71283,3.9705,Perak,Bagan Datuk,P.075 Bagan Datuk,N.53 Rungkup,hotspot,"SEKOLAH KEBANGSAAN JAWI, KAMPUNG SETHUSUNGAI JAWI DAN KAWASAN SEKITARNYA",N.21 Sungai Acheh,5.133532886,100.4903295,131.654,FALSE
POINT (100.20849 5.346650000000068),"Sungai Burong, Balik Pulau, Barat Daya, Pulau Pinang",Sepanjang Sg. Burong,"100.20849, 5.346650000000068",100.20849,5.34665,Pulau Pinang,Barat Daya,P.053 Balik Pulau,N.40 Telok Bahang,hotspot,"SEKOLAH KEBANGSAAN PULAU BETONG, PULAU BETONG, KAMPUNG PERLIS, KUALA PULAU BETONG",N.39 Pulau Betong,5.33421999,100.2158668,1.605,TRUE
POINT (100.2870600000001 5.323900000000037),"Bandar Bayan Bahru, Bayan Lepas, Barat Daya, Pulau Pinang",Bandar Baru Perda,"100.2870600000001, 5.323900000000037",100.28706,5.3239,Pulau Pinang,Barat Daya,P.052 Bayan Baru,N.36 Pantai Jerejak,hotspot,"SEKOLAH MENENGAH KEBANGSAAN SUNGAI ARA, KAMPUNG BARU SUNGAI ARA",N.36 Pantai Jerejak,5.323346261,100.2829178,0.463,TRUE
POINT (100.2087700000001 5.458270000000027),"Kampung Nelayan, Mukim 1 Pantai Aceh, Barat Daya, Pulau Pinang",Kg. Nelayan,"100.2087700000001, 5.458270000000027",100.20877,5.45827,Pulau Pinang,Barat Daya,P.053 Balik Pulau,N.40 Telok Bahang,hotspot,"DEWAN MBPP TELUK BAHANG, KAMPUNG NELAYAN, KAMPUNG BANGSAL RAWA, KAMPUNG TELUK AWAK",N.40 Telok Bahang,5.460129423,100.2060326,0.367,TRUE
POINT (100.21977 5.334620000000029),"Kampung Paya, Balik Pulau, Barat Daya, Pulau Pinang",Kg. Paya,"100.21977, 5.334620000000029",100.21977,5.33462,Pulau Pinang,Barat Daya,P.053 Balik Pulau,N.39 Pulau Betong,hotspot,"SEKOLAH KEBANGSAAN PULAU BETONG, PULAU BETONG, KAMPUNG PERLIS, KUALA PULAU BETONG",N.39 Pulau Betong,5.33421999,100.2158668,0.434,TRUE
POINT (100.2227700000001 5.293800000000033),"Kampung Sulup, Bayan Lepas, Barat Daya, Pulau Pinang",Kg. Suluk,"100.2227700000001, 5.293800000000033",100.22277,5.2938,Pulau Pinang,Barat Daya,P.053 Balik Pulau,N.38 Bayan Lepas,hotspot,"PUSAT LATIHAN SUKAN AIR TELUK KUMBAR, KAMPUNG NELAYANKAMPUNG PAYAKAMPUNG MASJIDBUKIT GEMURUHKAMPUNG SULUP",N.38 Bayan Lepas,5.287971707,100.232028,1.213,TRUE
POINT (100.2299933230001 5.356784095000023),"Barat Daya, Pulau Pinang",Kg. 14,"100.2299933230001, 5.356784095000023",100.2299933,5.356784095,Pulau Pinang,Barat Daya,P.053 Balik Pulau,N.39 Pulau Betong,hotspot,"SEKOLAH MENENGAH KEBANGSAAN TELUK BAHANG, TELUK BAHANG, TELUK AWAK",N.39 Pulau Betong,5.35226,100.23039,0.505,TRUE
POINT (100.2301300000001 5.300460000000044),"Kampung Matahari Naik, Bayan Lepas, Barat Daya, Pulau Pinang",Kg. Matahari Naik,"100.2301300000001, 5.300460000000044",100.23013,5.30046,Pulau Pinang,Barat Daya,P.053 Balik Pulau,N.38 Bayan Lepas,hotspot,"SEKOLAH MENENGAH KEBANGSAAN TELUK KUMBAR, KAMPUNG GERTAK SANGGULSUNGAI BATU",N.38 Bayan Lepas,5.29445502,100.2369551,1.008,TRUE
POINT (100.2223200000001 5.29173000000003),"Kampung Masjid, Bayan Lepas, Barat Daya, Pulau Pinang",Kg. Masjid,"100.2223200000001, 5.29173000000003",100.22232,5.29173,Pulau Pinang,Barat Daya,P.053 Balik Pulau,N.38 Bayan Lepas,hotspot,"PUSAT LATIHAN SUKAN AIR TELUK KUMBAR, KAMPUNG NELAYANKAMPUNG PAYAKAMPUNG MASJIDBUKIT GEMURUHKAMPUNG SULUP",N.38 Bayan Lepas,5.287971707,100.232028,1.153,TRUE
POINT (100.2876000000001 5.325550000000021),Sunshine Square,Jalan Mayang Pasir (Sunshine Bayan Baru) ,"100.2876000000001, 5.325550000000021",100.2876,5.32555,Pulau Pinang,Barat Daya,P.052 Bayan Baru,N.36 Pantai Jerejak,hotspot,"SEKOLAH MENENGAH KEBANGSAAN SUNGAI ARA, KAMPUNG BARU SUNGAI ARA",N.36 Pantai Jerejak,5.323346261,100.2829178,0.573,TRUE
POINT (100.2908 5.329700000000059),Masjid,Masjid Bayan Baru,"100.2908, 5.329700000000059",100.2908,5.3297,Pulau Pinang,Barat Daya,P.052 Bayan Baru,N.36 Pantai Jerejak,hotspot,"SEKOLAH KEBANGSAAN SUNGAI NIBONG, SUNGAI NIBONG BESAR, SUNGAI NIBONG PANTAI",N.36 Pantai Jerejak,5.332312536,100.2953982,0.586,TRUE
POINT (100.28592 5.323290000000043),Masjid Ibnu Umar al-Khatab,Hotel Alora Jalan Mayang Pasir 2 (Hotel Seri Malaysia & Masjid Umar Al-Khatab),"100.28592, 5.323290000000043",100.28592,5.32329,Pulau Pinang,Barat Daya,P.052 Bayan Baru,N.36 Pantai Jerejak,hotspot,"SEKOLAH MENENGAH KEBANGSAAN SUNGAI ARA, KAMPUNG BARU SUNGAI ARA",N.36 Pantai Jerejak,5.323346261,100.2829178,0.332,TRUE
POINT (100.2876044392223 5.332733193147567),"Jalan Tun Dr. Awang, Taman Mahsuri, Bayan Lepas, Barat Daya, 11900, Pulau Pinang",Jalan Tun Dr.Awang,"100.2876044392223, 5.332733193147567",100.2876044,5.332733193,Pulau Pinang,Timur Laut,P.052 Bayan Baru,N.35 Batu Uban,hotspot,"SEKOLAH KEBANGSAAN SUNGAI NIBONG, SUNGAI NIBONG BESAR, SUNGAI NIBONG PANTAI",N.36 Pantai Jerejak,5.332312536,100.2953982,0.864,TRUE
POINT (100.2785751251553 5.327882556107769),"Jalan Mahsuri, Bandar Bayan Bahru, Bayan Lepas, Barat Daya, 11950, Pulau Pinang",Jalan Mahsuri ,"100.2785751251553, 5.327882556107769",100.2785751,5.327882556,Pulau Pinang,Barat Daya,P.052 Bayan Baru,N.36 Pantai Jerejak,hotspot,"SEKOLAH MENENGAH KEBANGSAAN SUNGAI ARA, KAMPUNG BARU SUNGAI ARA",N.36 Pantai Jerejak,5.323346261,100.2829178,0.697,TRUE
POINT (100.2845372299841 5.330170906571357),"Persiaran Mahsuri, Taman Melati Jaya, Bayan Lepas, Barat Daya, 11950, Pulau Pinang",Persiaran Mahsuri,"100.2845372299841, 5.330170906571357",100.2845372,5.330170907,Pulau Pinang,Barat Daya,P.052 Bayan Baru,N.36 Pantai Jerejak,hotspot,"SEKOLAH MENENGAH KEBANGSAAN SUNGAI ARA, KAMPUNG BARU SUNGAI ARA",N.36 Pantai Jerejak,5.323346261,100.2829178,0.78,TRUE
POINT (100.2867309655646 5.31913587027339),"Jalan Tengah, Kampung Gedung, Bayan Lepas, Barat Daya, 11950, Pulau Pinang",Jalan Tengah,"100.2867309655646, 5.31913587027339",100.286731,5.31913587,Pulau Pinang,Barat Daya,P.052 Bayan Baru,N.36 Pantai Jerejak,hotspot,"SEKOLAH MENENGAH KEBANGSAAN SUNGAI ARA, KAMPUNG BARU SUNGAI ARA",N.36 Pantai Jerejak,5.323346261,100.2829178,0.63,TRUE
POINT (100.2761605038625 5.333119141627452),"Jalan Paya Terubung, Taman Sungai Ara, Bayan Lepas, Barat Daya, 11900, Pulau Pinang",Jalan Paya Terubong,"100.2761605038625, 5.333119141627452",100.2761605,5.333119142,Pulau Pinang,Barat Daya,P.051 Bukit Gelugor,N.34 Paya Terubong,hotspot,"SEKOLAH MENENGAH KEBANGSAAN SUNGAI ARA, KAMPUNG BARU SUNGAI ARA",N.36 Pantai Jerejak,5.323346261,100.2829178,1.319,TRUE
POINT (100.2761605038625 5.333119141627452),"Jalan Paya Terubung, Taman Sungai Ara, Bayan Lepas, Barat Daya, 11900, Pulau Pinang",Persiaran Paya Terubong,"100.2761605038625, 5.333119141627452",100.2761605,5.333119142,Pulau Pinang,Barat Daya,P.051 Bukit Gelugor,N.34 Paya Terubong,hotspot,"SEKOLAH MENENGAH KEBANGSAAN SUNGAI ARA, KAMPUNG BARU SUNGAI ARA",N.36 Pantai Jerejak,5.323346261,100.2829178,1.319,TRUE
POINT (100.2740800000001 5.329110000000071),Petronas,Jalan Dato’ Ismail Hashim (Petronas/Golden Triangle/Persiaran Relau),"100.2740800000001, 5.329110000000071",100.27408,5.32911,Pulau Pinang,Barat Daya,P.053 Balik Pulau,N.37 Batu Maung,hotspot,"SEKOLAH MENENGAH KEBANGSAAN SUNGAI ARA, KAMPUNG BARU SUNGAI ARA",N.36 Pantai Jerejak,5.323346261,100.2829178,1.17,FALSE
POINT (100.2705900000001 5.319340000000068),SMK Sungai Ara,Depan SMK Sg. Ara,"100.2705900000001, 5.319340000000068",100.27059,5.31934,Pulau Pinang,Barat Daya,P.052 Bayan Baru,N.37 Batu Maung,hotspot,"SEKOLAH MENENGAH KEBANGSAAN SUNGAI ARA, KAMPUNG BARU SUNGAI ARA",N.36 Pantai Jerejak,5.323346261,100.2829178,1.436,FALSE
POINT (100.27509 5.319190000000049),"Kampung Baru Sungai Ara, Bayan Lepas, Barat Daya, Pulau Pinang",Kampung Baru Sungai Ara,"100.27509, 5.319190000000049",100.27509,5.31919,Pulau Pinang,Barat Daya,P.052 Bayan Baru,N.37 Batu Maung,hotspot,"SEKOLAH MENENGAH KEBANGSAAN SUNGAI ARA, KAMPUNG BARU SUNGAI ARA",N.36 Pantai Jerejak,5.323346261,100.2829178,0.982,FALSE
POINT (100.2927844051157 5.333172117660469),"Jalan Kampung Relau, Medan Kampung Relau, Bayan Lepas, Barat Daya, 11900, Pulau Pinang",Jalan Kampung Relau (Hotel Alora) ,"100.2927844051157, 5.333172117660469",100.2927844,5.333172118,Pulau Pinang,Barat Daya,P.052 Bayan Baru,N.35 Batu Uban,hotspot,"SEKOLAH KEBANGSAAN SUNGAI NIBONG, SUNGAI NIBONG BESAR, SUNGAI NIBONG PANTAI",N.36 Pantai Jerejak,5.332312536,100.2953982,0.305,TRUE
POINT (100.2941000000001 5.328920000000039),"Kampung Jawa, Bayan Lepas, Barat Daya, Pulau Pinang",Kampung Jawa ,"100.2941000000001, 5.328920000000039",100.2941,5.32892,Pulau Pinang,Barat Daya,P.052 Bayan Baru,N.36 Pantai Jerejak,hotspot,"SEKOLAH KEBANGSAAN SUNGAI NIBONG, SUNGAI NIBONG BESAR, SUNGAI NIBONG PANTAI",N.36 Pantai Jerejak,5.332312536,100.2953982,0.404,TRUE
POINT (100.2998700000001 5.330570000000023),"Bayan Lepas, Barat Daya, Pulau Pinang",Pekan Bayan Lepas,"100.2998700000001, 5.330570000000023",100.29987,5.33057,Pulau Pinang,Barat Daya,P.052 Bayan Baru,N.36 Pantai Jerejak,hotspot,"SEKOLAH KEBANGSAAN SUNGAI NIBONG, SUNGAI NIBONG BESAR, SUNGAI NIBONG PANTAI",N.36 Pantai Jerejak,5.332312536,100.2953982,0.532,TRUE
POINT (100.2609600000001 5.294610000000034),"Kampung Baruh, Bayan Lepas, Barat Daya, Pulau Pinang",Kg. Baroh,"100.2609600000001, 5.294610000000034",100.26096,5.29461,Pulau Pinang,Barat Daya,P.053 Balik Pulau,N.38 Bayan Lepas,hotspot,"SEKOLAH MENENGAH KEBANGSAAN BATU MAUNG, TELUK TEMPOYAK, BATU MAUNG",N.38 Bayan Lepas,5.287365662,100.258268,0.859,TRUE
POINT (100.2586200000001 5.29093000000006),"Kampung Padang, Bayan Lepas, Barat Daya, Pulau Pinang",Kg. Padang,"100.2586200000001, 5.29093000000006",100.25862,5.29093,Pulau Pinang,Barat Daya,P.053 Balik Pulau,N.38 Bayan Lepas,hotspot,"SEKOLAH MENENGAH KEBANGSAAN BATU MAUNG, TELUK TEMPOYAK, BATU MAUNG",N.38 Bayan Lepas,5.287365662,100.258268,0.398,TRUE
POINT (100.2564400000001 5.294310000000053),"Kampung Bukit, Bayan Lepas, Barat Daya, Pulau Pinang",Kg. Bukit,"100.2564400000001, 5.294310000000053",100.25644,5.29431,Pulau Pinang,Barat Daya,P.053 Balik Pulau,N.38 Bayan Lepas,hotspot,"SEKOLAH MENENGAH KEBANGSAAN BATU MAUNG, TELUK TEMPOYAK, BATU MAUNG",N.38 Bayan Lepas,5.287365662,100.258268,0.798,TRUE
POINT (100.2583500000001 5.290800000000047),"Kampung Seronok, Bayan Lepas, Barat Daya, Pulau Pinang",Kg. Seronok,"100.2583500000001, 5.290800000000047",100.25835,5.2908,Pulau Pinang,Barat Daya,P.053 Balik Pulau,N.38 Bayan Lepas,hotspot,"SEKOLAH MENENGAH KEBANGSAAN BATU MAUNG, TELUK TEMPOYAK, BATU MAUNG",N.38 Bayan Lepas,5.287365662,100.258268,0.382,TRUE
POINT (100.2638469905318 5.297937813031056),"Jalan Mahkamah, Kampung Perlis, Bayan Lepas, Barat Daya, 11900, Pulau Pinang",Jalan Mahkamah,"100.2638469905318, 5.297937813031056",100.263847,5.297937813,Pulau Pinang,Barat Daya,P.053 Balik Pulau,N.38 Bayan Lepas,hotspot,"SEKOLAH MENENGAH KEBANGSAAN BATU MAUNG, TELUK TEMPOYAK, BATU MAUNG",N.38 Bayan Lepas,5.287365662,100.258268,1.328,TRUE
POINT (100.2592000000001 5.296020000000055),Masjid,Jalan Dato' Ismail Hashim (Masjid Bayan Lepas),"100.2592000000001, 5.296020000000055",100.2592,5.29602,Pulau Pinang,Barat Daya,P.053 Balik Pulau,N.38 Bayan Lepas,hotspot,"SEKOLAH MENENGAH KEBANGSAAN BATU MAUNG, TELUK TEMPOYAK, BATU MAUNG",N.38 Bayan Lepas,5.287365662,100.258268,0.968,TRUE
POINT (100.25667 5.287070000000028),Masjid,Masjid Bayan Lepas Kampung Binjai,"100.25667, 5.287070000000028",100.25667,5.28707,Pulau Pinang,Barat Daya,P.053 Balik Pulau,N.38 Bayan Lepas,hotspot,"SEKOLAH MENENGAH KEBANGSAAN BATU MAUNG, TELUK TEMPOYAK, BATU MAUNG",N.38 Bayan Lepas,5.287365662,100.258268,0.18,TRUE
POINT (100.2596389227528 5.292772327633283),"Jalan Kolam Ikan, Desa Kolam Ikan, Bayan Lepas, Barat Daya, 11900, Pulau Pinang",Jalan Kolam Ikan,"100.2596389227528, 5.292772327633283",100.2596389,5.292772328,Pulau Pinang,Barat Daya,P.053 Balik Pulau,N.38 Bayan Lepas,hotspot,"SEKOLAH MENENGAH KEBANGSAAN BATU MAUNG, TELUK TEMPOYAK, BATU MAUNG",N.38 Bayan Lepas,5.287365662,100.258268,0.62,TRUE
POINT (100.26579 5.29329000000007),Balai Polis Lapangan Terbang Bayan Lepas,Lapangan Terbang Bayan Lepas (LTABL),"100.26579, 5.29329000000007",100.26579,5.29329,Pulau Pinang,Barat Daya,P.052 Bayan Baru,N.37 Batu Maung,hotspot,"SEKOLAH MENENGAH KEBANGSAAN BATU MAUNG, TELUK TEMPOYAK, BATU MAUNG",N.38 Bayan Lepas,5.287365662,100.258268,1.062,FALSE
POINT (100.2618878680522 5.298732171684272),"Jalan Dato Ismail Hashim, Kampung Bukit, Bayan Lepas, Barat Daya, 11920, Pulau Pinang",Jalan Dato' Ismail Hashim (Depan SMK Mutiara Perdana),"100.2618878680522, 5.298732171684272",100.2618879,5.298732172,Pulau Pinang,Barat Daya,P.053 Balik Pulau,N.38 Bayan Lepas,hotspot,"SEKOLAH MENENGAH KEBANGSAAN BATU MAUNG, TELUK TEMPOYAK, BATU MAUNG",N.38 Bayan Lepas,5.287365662,100.258268,1.326,TRUE
POINT (100.2819200000001 5.299740000000043),"Kampung Naran, Batu Maung, Barat Daya, Pulau Pinang",Kampung Naran,"100.2819200000001, 5.299740000000043",100.28192,5.29974,Pulau Pinang,Barat Daya,P.052 Bayan Baru,N.37 Batu Maung,hotspot,"SEKOLAH MENENGAH KEBANGSAAN SUNGAI ARA, KAMPUNG BARU SUNGAI ARA",N.36 Pantai Jerejak,5.323346261,100.2829178,2.627,FALSE
POINT (100.26824 5.296410000000037),Jalan Sultan Azlan Shah,Jalan Sultan Azlan Shah & FIZ 1&2,"100.26824, 5.296410000000037",100.26824,5.29641,Pulau Pinang,Barat Daya,P.053 Balik Pulau,N.38 Bayan Lepas,hotspot,"SEKOLAH MENENGAH KEBANGSAAN BATU MAUNG, TELUK TEMPOYAK, BATU MAUNG",N.38 Bayan Lepas,5.287365662,100.258268,1.493,TRUE
POINT (100.27342 5.304200000000037),"Kampung Sungai Tiram, Bayan Lepas, Barat Daya, Pulau Pinang",Kg. Sg. Tiram,"100.27342, 5.304200000000037",100.27342,5.3042,Pulau Pinang,Barat Daya,P.052 Bayan Baru,N.37 Batu Maung,hotspot,"SEKOLAH MENENGAH KEBANGSAAN SUNGAI ARA, KAMPUNG BARU SUNGAI ARA",N.36 Pantai Jerejak,5.323346261,100.2829178,2.375,FALSE
POINT (100.2885000000001 5.284960000000069),"Kampung Batu Maung, Batu Maung, Barat Daya, Pulau Pinang",Kg. Batu Maung,"100.2885000000001, 5.284960000000069",100.2885,5.28496,Pulau Pinang,Barat Daya,P.052 Bayan Baru,N.37 Batu Maung,hotspot,"SEKOLAH MENENGAH KEBANGSAAN BATU MAUNG, TELUK TEMPOYAK, BATU MAUNG",N.38 Bayan Lepas,5.287365662,100.258268,3.358,FALSE
POINT (100.2811 5.283730000000048),"Taman Ipeng, Batu Maung, Barat Daya, Pulau Pinang",Taman Iping,"100.2811, 5.283730000000048",100.2811,5.28373,Pulau Pinang,Barat Daya,P.052 Bayan Baru,N.37 Batu Maung,hotspot,"SEKOLAH MENENGAH KEBANGSAAN BATU MAUNG, TELUK TEMPOYAK, BATU MAUNG",N.38 Bayan Lepas,5.287365662,100.258268,2.56,FALSE
POINT (100.2819200000001 5.299740000000043),"Kampung Naran, Batu Maung, Barat Daya, Pulau Pinang",Kampung Naran,"100.2819200000001, 5.299740000000043",100.28192,5.29974,Pulau Pinang,Barat Daya,P.052 Bayan Baru,N.37 Batu Maung,hotspot,"SEKOLAH MENENGAH KEBANGSAAN SUNGAI ARA, KAMPUNG BARU SUNGAI ARA",N.36 Pantai Jerejak,5.323346261,100.2829178,2.627,FALSE
POINT (100.21547 5.367060000000038),"Taman Manggis Indah, Balik Pulau, Barat Daya, Pulau Pinang",Taman Manggis ,"100.21547, 5.367060000000038",100.21547,5.36706,Pulau Pinang,Barat Daya,P.053 Balik Pulau,N.40 Telok Bahang,hotspot,"SEKOLAH MENENGAH KEBANGSAAN TELUK BAHANG, TELUK BAHANG, TELUK AWAK",N.39 Pulau Betong,5.35226,100.23039,2.332,TRUE
POINT (100.4365500000001 5.45377000000002),"Merbau Kudung, Butterworth, Seberang Perai Utara, Pulau Pinang",Kg. Merbau Kudung,"100.4365500000001, 5.45377000000002",100.43655,5.45377,Pulau Pinang,Seberang Perai Utara,P.042 Tasek Gelugor,N.05 Sungai Dua,hotspot,"DEWAN BANJIR LABUH BANTING, LABUH BANTING DAN KAMPUNG BARU GUAR PETAI",N.04 Permatang Berangan,5.446134704,100.4561267,2.327,FALSE
POINT (100.3990800000001 5.413280000000043),"Taman Ampang Jajar, Butterworth, Seberang Perai Utara, Pulau Pinang",Taman Ampang Jajar,"100.3990800000001, 5.413280000000043",100.39908,5.41328,Pulau Pinang,Seberang Perai Utara,P.044 Permatang Pauh,N.11 Permatang Pasir,hotspot,"DEWAN HAJI ZABIDI, KAMPUNG PERTAMA (DUN SEBERANG JAYA), KAMPUNG PERTAMA / PERMATANG JANGGUS",N.10 Seberang Jaya,5.39711,100.39938,1.798,TRUE
POINT (100.3986300000001 5.411160000000052),"Taman Kerapu, Butterworth, Seberang Perai Utara, Pulau Pinang",Taman Kerapu,"100.3986300000001, 5.411160000000052",100.39863,5.41116,Pulau Pinang,Seberang Perai Utara,P.043 Bagan,N.08 Bagan Jermal,hotspot,"DEWAN HAJI ZABIDI, KAMPUNG PERTAMA (DUN SEBERANG JAYA), KAMPUNG PERTAMA / PERMATANG JANGGUS",N.10 Seberang Jaya,5.39711,100.39938,1.564,FALSE
POINT (100.42956 5.441120000000069),"Pengkalan Machang, Butterworth, Seberang Perai Utara, Pulau Pinang",Kg. Pengkalan Macang,"100.42956, 5.441120000000069",100.42956,5.44112,Pulau Pinang,Seberang Perai Utara,P.042 Tasek Gelugor,N.05 Sungai Dua,hotspot,"DEWAN ORANG RAMAI TANJUNG PUTUS (DUN PERMATANG PASIR), TANJUNG PUTUS",N.11 Permatang Pasir,5.41628,100.43864,2.939,FALSE
POINT (100.4304700000001 5.436220000000048),"Taman Desa Murni, Butterworth, Seberang Perai Utara, Pulau Pinang",Taman Desa Murni,"100.4304700000001, 5.436220000000048",100.43047,5.43622,Pulau Pinang,Seberang Perai Utara,P.042 Tasek Gelugor,N.05 Sungai Dua,hotspot,"DEWAN ORANG RAMAI TANJUNG PUTUS (DUN PERMATANG PASIR), TANJUNG PUTUS",N.11 Permatang Pasir,5.41628,100.43864,2.395,FALSE
POINT (100.4425199460001 5.499931274000062),"Seberang Perai Utara, Pulau Pinang",Taman Sintat,"100.4425199460001, 5.499931274000062",100.4425199,5.499931274,Pulau Pinang,Seberang Perai Utara,P.041 Kepala Batas,N.02 Bertam,hotspot,"DEWAN BANJIR KAMPUNG TOK BEDU, KAMPUNG TOK BEDU DAN KAMPUNG AIR MELINTAS BESAR",N.03 Pinang Tunggal,5.504625217,100.4819566,4.396,FALSE
POINT (100.3854400000001 5.43897000000004),"Taman Bunga Raya, Butterworth, Seberang Perai Utara, Pulau Pinang",Taman Bunga Raya,"100.3854400000001, 5.43897000000004",100.38544,5.43897,Pulau Pinang,Seberang Perai Utara,P.043 Bagan,N.07 Sungai Puyu,hotspot,"DEWAN HAJI ZABIDI, KAMPUNG PERTAMA (DUN SEBERANG JAYA), KAMPUNG PERTAMA / PERMATANG JANGGUS",N.10 Seberang Jaya,5.39711,100.39938,4.904,FALSE
POINT (100.4533500000001 5.465110000000038),"Nyior Sebatang, Tasek Gelugor, Seberang Perai Utara, Pulau Pinang",Kg.Nyior Sebatang,"100.4533500000001, 5.465110000000038",100.45335,5.46511,Pulau Pinang,Seberang Perai Utara,P.042 Tasek Gelugor,N.05 Sungai Dua,hotspot,"DEWAN BANJIR LABUH BANTING, LABUH BANTING DAN KAMPUNG BARU GUAR PETAI",N.04 Permatang Berangan,5.446134704,100.4561267,2.132,FALSE
POINT (100.4057100000001 5.43652000000003),"Kampung Tok Sani, Butterworth, Seberang Perai Utara, Pulau Pinang",Kampung Tok Sani,"100.4057100000001, 5.43652000000003",100.40571,5.43652,Pulau Pinang,Seberang Perai Utara,P.043 Bagan,N.07 Sungai Puyu,hotspot,"DEWAN ORANG RAMAI TANJUNG PUTUS (DUN PERMATANG PASIR), TANJUNG PUTUS",N.11 Permatang Pasir,5.41628,100.43864,4.284,FALSE
POINT (100.3978400000001 5.436440000000061),"Taman Puyu, Butterworth, Seberang Perai Utara, Pulau Pinang",Taman Puyu,"100.3978400000001, 5.436440000000061",100.39784,5.43644,Pulau Pinang,Seberang Perai Utara,P.043 Bagan,N.07 Sungai Puyu,hotspot,"DEWAN HAJI ZABIDI, KAMPUNG PERTAMA (DUN SEBERANG JAYA), KAMPUNG PERTAMA / PERMATANG JANGGUS",N.10 Seberang Jaya,5.39711,100.39938,4.377,FALSE
POINT (100.3928300000001 5.420790000000068),"Mak Mandin, Butterworth, Seberang Perai Utara, Pulau Pinang",SRJK(T) Mak Mandin,"100.3928300000001, 5.420790000000068",100.39283,5.42079,Pulau Pinang,Seberang Perai Utara,P.043 Bagan,N.08 Bagan Jermal,hotspot,"DEWAN HAJI ZABIDI, KAMPUNG PERTAMA (DUN SEBERANG JAYA), KAMPUNG PERTAMA / PERMATANG JANGGUS",N.10 Seberang Jaya,5.39711,100.39938,2.731,FALSE
POINT (100.3928300000001 5.420790000000068),"Mak Mandin, Butterworth, Seberang Perai Utara, Pulau Pinang",SK Mak Mandin,"100.3928300000001, 5.420790000000068",100.39283,5.42079,Pulau Pinang,Seberang Perai Utara,P.043 Bagan,N.08 Bagan Jermal,hotspot,"DEWAN HAJI ZABIDI, KAMPUNG PERTAMA (DUN SEBERANG JAYA), KAMPUNG PERTAMA / PERMATANG JANGGUS",N.10 Seberang Jaya,5.39711,100.39938,2.731,FALSE
POINT (100.3895900000001 5.420560000000023),SMK Mak Mandin,SMK Mak Mandin,"100.3895900000001, 5.420560000000023",100.38959,5.42056,Pulau Pinang,Seberang Perai Utara,P.043 Bagan,N.08 Bagan Jermal,hotspot,"DEWAN HAJI ZABIDI, KAMPUNG PERTAMA (DUN SEBERANG JAYA), KAMPUNG PERTAMA / PERMATANG JANGGUS",N.10 Seberang Jaya,5.39711,100.39938,2.824,FALSE
POINT (100.38471 5.410340000000076),"Taman Bagan, Butterworth, Seberang Perai Utara, Pulau Pinang",Taman Bagan,"100.38471, 5.410340000000076",100.38471,5.41034,Pulau Pinang,Seberang Perai Utara,P.043 Bagan,N.09 Bagan Dalam,hotspot,"DEWAN HAJI ZABIDI, KAMPUNG PERTAMA (DUN SEBERANG JAYA), KAMPUNG PERTAMA / PERMATANG JANGGUS",N.10 Seberang Jaya,5.39711,100.39938,2.191,FALSE
POINT (100.3827200000001 5.415630000000021),"Taman Cantek, Butterworth, Seberang Perai Utara, Pulau Pinang",Taman Cantek,"100.3827200000001, 5.415630000000021",100.38272,5.41563,Pulau Pinang,Seberang Perai Utara,P.043 Bagan,N.08 Bagan Jermal,hotspot,"DEWAN HAJI ZABIDI, KAMPUNG PERTAMA (DUN SEBERANG JAYA), KAMPUNG PERTAMA / PERMATANG JANGGUS",N.10 Seberang Jaya,5.39711,100.39938,2.764,FALSE
POINT (100.3928300000001 5.420790000000068),"Mak Mandin, Butterworth, Seberang Perai Utara, Pulau Pinang",Kawasan Perindustrian Mak Mandin,"100.3928300000001, 5.420790000000068",100.39283,5.42079,Pulau Pinang,Seberang Perai Utara,P.043 Bagan,N.08 Bagan Jermal,hotspot,"DEWAN HAJI ZABIDI, KAMPUNG PERTAMA (DUN SEBERANG JAYA), KAMPUNG PERTAMA / PERMATANG JANGGUS",N.10 Seberang Jaya,5.39711,100.39938,2.731,FALSE
POINT (100.3928300000001 5.420790000000068),"Mak Mandin, Butterworth, Seberang Perai Utara, Pulau Pinang",Pejabat POS Mak Mandin,"100.3928300000001, 5.420790000000068",100.39283,5.42079,Pulau Pinang,Seberang Perai Utara,P.043 Bagan,N.08 Bagan Jermal,hotspot,"DEWAN HAJI ZABIDI, KAMPUNG PERTAMA (DUN SEBERANG JAYA), KAMPUNG PERTAMA / PERMATANG JANGGUS",N.10 Seberang Jaya,5.39711,100.39938,2.731,FALSE
POINT (100.4425199460001 5.499931274000062),"Seberang Perai Utara, Pulau Pinang",Flat Hijau ,"100.4425199460001, 5.499931274000062",100.4425199,5.499931274,Pulau Pinang,Seberang Perai Utara,P.041 Kepala Batas,N.02 Bertam,hotspot,"DEWAN BANJIR KAMPUNG TOK BEDU, KAMPUNG TOK BEDU DAN KAMPUNG AIR MELINTAS BESAR",N.03 Pinang Tunggal,5.504625217,100.4819566,4.396,FALSE
POINT (100.38962 5.421280000000024),Klinik Kesihatan Mak Mandin,Klinik Kesihatan Mak Mandin,"100.38962, 5.421280000000024",100.38962,5.42128,Pulau Pinang,Seberang Perai Utara,P.043 Bagan,N.08 Bagan Jermal,hotspot,"DEWAN HAJI ZABIDI, KAMPUNG PERTAMA (DUN SEBERANG JAYA), KAMPUNG PERTAMA / PERMATANG JANGGUS",N.10 Seberang Jaya,5.39711,100.39938,2.897,FALSE
POINT (100.4425199460001 5.499931274000062),"Seberang Perai Utara, Pulau Pinang",Kampung Malaysia,"100.4425199460001, 5.499931274000062",100.4425199,5.499931274,Pulau Pinang,Seberang Perai Utara,P.041 Kepala Batas,N.02 Bertam,hotspot,"DEWAN BANJIR KAMPUNG TOK BEDU, KAMPUNG TOK BEDU DAN KAMPUNG AIR MELINTAS BESAR",N.03 Pinang Tunggal,5.504625217,100.4819566,4.396,FALSE
POINT (100.3863954789051 5.424884998383359),"Jalan Mak Mandin, Mak Mandin Industrial Estate, Butterworth, Seberang Perai Utara, 13400, Pulau Pinang",Kawasan Perumahan Mak Mandin,"100.3863954789051, 5.424884998383359",100.3863955,5.424884998,Pulau Pinang,Seberang Perai Utara,P.043 Bagan,N.08 Bagan Jermal,hotspot,"DEWAN HAJI ZABIDI, KAMPUNG PERTAMA (DUN SEBERANG JAYA), KAMPUNG PERTAMA / PERMATANG JANGGUS",N.10 Seberang Jaya,5.39711,100.39938,3.407,FALSE
POINT (100.3906200000001 5.43888000000004),"Taman Teratai, Butterworth, Seberang Perai Utara, Pulau Pinang",Taman Teratai,"100.3906200000001, 5.43888000000004",100.39062,5.43888,Pulau Pinang,Seberang Perai Utara,P.043 Bagan,N.07 Sungai Puyu,hotspot,"DEWAN HAJI ZABIDI, KAMPUNG PERTAMA (DUN SEBERANG JAYA), KAMPUNG PERTAMA / PERMATANG JANGGUS",N.10 Seberang Jaya,5.39711,100.39938,4.745,FALSE
POINT (100.4684600000001 5.441000000000031),"Kampung Tok Jawa, Tasek Gelugor, Seberang Perai Utara, Pulau Pinang",Kg. Tok Jawa,"100.4684600000001, 5.441000000000031",100.46846,5.441,Pulau Pinang,Seberang Perai Utara,P.042 Tasek Gelugor,N.04 Permatang Berangan,hotspot,"DEWAN BANJIR LABUH BANTING, LABUH BANTING DAN KAMPUNG BARU GUAR PETAI",N.04 Permatang Berangan,5.446134704,100.4561267,1.48,TRUE
POINT (100.4590603520001 5.364177399000027),"Seberang Perai Tengah, Pulau Pinang",Kg. Tok Sardon,"100.4590603520001, 5.364177399000027",100.4590604,5.364177399,Pulau Pinang,Seberang Perai Tengah,P.045 Bukit Mertajam,N.15 Padang Lalang,hotspot,"SEK. MEN. KEB. JIT SIN (DUN PADANG LALANG), TAMAN RAMBAI / TAMAN DESA DAMAI",N.10 Seberang Jaya,5.36858,100.44271,1.875,FALSE
POINT (100.42109 5.446560000000034),"Kampung Teluk, Butterworth, Seberang Perai Utara, Pulau Pinang",Kg. Telok,"100.42109, 5.446560000000034",100.42109,5.44656,Pulau Pinang,Seberang Perai Utara,P.042 Tasek Gelugor,N.05 Sungai Dua,hotspot,"DEWAN BANJIR LABUH BANTING, LABUH BANTING DAN KAMPUNG BARU GUAR PETAI",N.04 Permatang Berangan,5.446134704,100.4561267,3.879,FALSE
POINT (100.41722 5.43810000000002),"Kawasan Perusahaan Sungai Lokan, Butterworth, Seberang Perai Utara, Pulau Pinang",Kawasan Industri Sg. Lokan,"100.41722, 5.43810000000002",100.41722,5.4381,Pulau Pinang,Seberang Perai Utara,P.042 Tasek Gelugor,N.05 Sungai Dua,hotspot,"DEWAN ORANG RAMAI TANJUNG PUTUS (DUN PERMATANG PASIR), TANJUNG PUTUS",N.11 Permatang Pasir,5.41628,100.43864,3.392,FALSE
POINT (100.4175000000001 5.454660000000047),"Permatang Chetak, Butterworth, Seberang Perai Utara, Pulau Pinang",Parit Hogen Kg. Permatang Che Tak,"100.4175000000001, 5.454660000000047",100.4175,5.45466,Pulau Pinang,Seberang Perai Utara,P.042 Tasek Gelugor,N.05 Sungai Dua,hotspot,"DEWAN BANJIR LABUH BANTING, LABUH BANTING DAN KAMPUNG BARU GUAR PETAI",N.04 Permatang Berangan,5.446134704,100.4561267,4.379,FALSE
POINT (100.4046400000001 5.450580000000059),"Alor Merah, Butterworth, Seberang Perai Utara, Pulau Pinang",Kg. Alor Merah,"100.4046400000001, 5.450580000000059",100.40464,5.45058,Pulau Pinang,Seberang Perai Utara,P.042 Tasek Gelugor,N.05 Sungai Dua,hotspot,"DEWAN ORANG RAMAI TANJUNG PUTUS (DUN PERMATANG PASIR), TANJUNG PUTUS",N.11 Permatang Pasir,5.41628,100.43864,5.358,FALSE
POINT (100.40126 5.445310000000063),"Kampung Manggis, Butterworth, Seberang Perai Utara, Pulau Pinang",Kg. Manggis,"100.40126, 5.445310000000063",100.40126,5.44531,Pulau Pinang,Seberang Perai Utara,P.043 Bagan,N.07 Sungai Puyu,hotspot,"DEWAN ORANG RAMAI TANJUNG PUTUS (DUN PERMATANG PASIR), TANJUNG PUTUS",N.11 Permatang Pasir,5.41628,100.43864,5.248,FALSE
POINT (100.39342 5.448590000000024),"Taman Selayang Utama, Butterworth, Seberang Perai Utara, Pulau Pinang",Taman Selayang Utama,"100.39342, 5.448590000000024",100.39342,5.44859,Pulau Pinang,Seberang Perai Utara,P.043 Bagan,N.07 Sungai Puyu,hotspot,"DEWAN HAJI ZABIDI, KAMPUNG PERTAMA (DUN SEBERANG JAYA), KAMPUNG PERTAMA / PERMATANG JANGGUS",N.10 Seberang Jaya,5.39711,100.39938,5.762,FALSE
POINT (100.4009600000001 5.450400000000059),"Maklom, Butterworth, Seberang Perai Utara, Pulau Pinang",Kg. Maklom,"100.4009600000001, 5.450400000000059",100.40096,5.4504,Pulau Pinang,Seberang Perai Utara,P.042 Tasek Gelugor,N.05 Sungai Dua,hotspot,"DEWAN ORANG RAMAI TANJUNG PUTUS (DUN PERMATANG PASIR), TANJUNG PUTUS",N.11 Permatang Pasir,5.41628,100.43864,5.638,FALSE
POINT (100.4567900000001 5.469080000000076),"Lahar Yooi, Tasek Gelugor, Seberang Perai Utara, Pulau Pinang",Kg. Lahar Yooi,"100.4567900000001, 5.469080000000076",100.45679,5.46908,Pulau Pinang,Seberang Perai Utara,P.042 Tasek Gelugor,N.05 Sungai Dua,hotspot,"DEWAN BANJIR LABUH BANTING, LABUH BANTING DAN KAMPUNG BARU GUAR PETAI",N.04 Permatang Berangan,5.446134704,100.4561267,2.552,FALSE
POINT (100.45748 5.475410000000068),"Lubuk Meriam, Tasek Gelugor, Seberang Perai Utara, Pulau Pinang",Lubuk Meriam,"100.45748, 5.475410000000068",100.45748,5.47541,Pulau Pinang,Seberang Perai Utara,P.042 Tasek Gelugor,N.04 Permatang Berangan,hotspot,"DEWAN BANJIR LABUH BANTING, LABUH BANTING DAN KAMPUNG BARU GUAR PETAI",N.04 Permatang Berangan,5.446134704,100.4561267,3.259,TRUE
POINT (100.4664000000001 5.463680000000068),"Padang Tonson, Tasek Gelugor, Seberang Perai Utara, Pulau Pinang",Pdg Tonsun,"100.4664000000001, 5.463680000000068",100.4664,5.46368,Pulau Pinang,Seberang Perai Utara,P.042 Tasek Gelugor,N.04 Permatang Berangan,hotspot,"DEWAN BANJIR LABUH BANTING, LABUH BANTING DAN KAMPUNG BARU GUAR PETAI",N.04 Permatang Berangan,5.446134704,100.4561267,2.258,TRUE
POINT (100.5269500000001 5.515150000000062),"Kampung Selamat, Tasek Gelugor, Seberang Perai Utara, Pulau Pinang",Kg. Selamat,"100.5269500000001, 5.515150000000062",100.52695,5.51515,Pulau Pinang,Seberang Perai Utara,P.041 Kepala Batas,N.03 Pinang Tunggal,hotspot,"DEWAN BANJIR BUMBUNG LIMA, Pantai Kamlon, Tanjung Rambai Dan Dusun Lada",N.03 Pinang Tunggal,5.549308545,100.5066773,4.411,TRUE
POINT (100.47173 5.488320000000044),"Pokok Machang, Tasek Gelugor, Seberang Perai Utara, Pulau Pinang",Kg. Pokok Macang,"100.47173, 5.488320000000044",100.47173,5.48832,Pulau Pinang,Seberang Perai Utara,P.042 Tasek Gelugor,N.04 Permatang Berangan,hotspot,"DEWAN BANJIR PENGKALAN BONGOR, PENGKALAN  BONGOR.",N.03 Pinang Tunggal,5.502271889,100.4830092,1.991,TRUE
POINT (100.5043400000001 5.557320000000061),"Permatang Saga, Kepala Batas, Seberang Perai Utara, Pulau Pinang",Kg. Permatang Saga,"100.5043400000001, 5.557320000000061",100.50434,5.55732,Pulau Pinang,Seberang Perai Utara,P.041 Kepala Batas,N.03 Pinang Tunggal,hotspot,"DEWAN BANJIR PERMATANG SAGA, PERMATANG SAGA, BUKIT SEMENTOL DAN PINANG TUNGGAL TEPI SUNGAI",N.03 Pinang Tunggal,5.559893275,100.5048198,0.291,TRUE
POINT (100.5029400000001 5.467760000000055),"Paya Tok Akil, Tasek Gelugor, Seberang Perai Utara, Pulau Pinang",Kg. Paya Tok Akil,"100.5029400000001, 5.467760000000055",100.50294,5.46776,Pulau Pinang,Seberang Perai Utara,P.042 Tasek Gelugor,N.04 Permatang Berangan,hotspot,"DEWAN BANJIR PENGKALAN BONGOR, PENGKALAN  BONGOR.",N.03 Pinang Tunggal,5.502271889,100.4830092,4.426,TRUE
POINT (100.4425199460001 5.499931274000062),"Seberang Perai Utara, Pulau Pinang",Kg. Desa Kacang Puri,"100.4425199460001, 5.499931274000062",100.4425199,5.499931274,Pulau Pinang,Seberang Perai Utara,P.041 Kepala Batas,N.02 Bertam,hotspot,"DEWAN BANJIR KAMPUNG TOK BEDU, KAMPUNG TOK BEDU DAN KAMPUNG AIR MELINTAS BESAR",N.03 Pinang Tunggal,5.504625217,100.4819566,4.396,FALSE
POINT (100.4425199460001 5.499931274000062),"Seberang Perai Utara, Pulau Pinang",Padang Cempedak,"100.4425199460001, 5.499931274000062",100.4425199,5.499931274,Pulau Pinang,Seberang Perai Utara,P.041 Kepala Batas,N.02 Bertam,hotspot,"DEWAN BANJIR KAMPUNG TOK BEDU, KAMPUNG TOK BEDU DAN KAMPUNG AIR MELINTAS BESAR",N.03 Pinang Tunggal,5.504625217,100.4819566,4.396,FALSE
POINT (100.4986032622268 5.479227978751381),"Lorong Haji Ahmad Jamil, Taman Haji Ahmad Jamil, Tasek Gelugor, Seberang Perai Utara, 13300, Pulau Pinang",Taman Hj. Ahmad Jamil,"100.4986032622268, 5.479227978751381",100.4986033,5.479227979,Pulau Pinang,Seberang Perai Utara,P.042 Tasek Gelugor,N.04 Permatang Berangan,hotspot,"DEWAN BANJIR PENGKALAN BONGOR, PENGKALAN  BONGOR.",N.03 Pinang Tunggal,5.502271889,100.4830092,3.089,TRUE
POINT (100.3618700000001 5.565340000000049),"Kampung Permatang Rawa, Penaga, Seberang Perai Utara, Pulau Pinang",Kg. Pmtg Berangan,"100.3618700000001, 5.565340000000049",100.36187,5.56534,Pulau Pinang,Seberang Perai Utara,P.041 Kepala Batas,N.01 Penaga,hotspot,"DEWAN BANJIR RANTAU PANJANG, RANTAU PANJANGKAMPUNG GURUN",N.01 Penaga,5.57087,100.39898,4.153,TRUE
POINT (100.4278300000001 5.524890000000028),"Kampung Datok, Kepala Batas, Seberang Perai Utara, Pulau Pinang",Kg. Datuk,"100.4278300000001, 5.524890000000028",100.42783,5.52489,Pulau Pinang,Seberang Perai Utara,P.041 Kepala Batas,N.02 Bertam,hotspot,"DEWAN BANJIR GUAR KEPAH, GUAR KEPAH",N.01 Penaga,5.55841,100.42072,3.809,FALSE
POINT (100.4277700000001 5.475790000000075),"Kampung Setol, Kepala Batas, Seberang Perai Utara, Pulau Pinang",Kg. Setol,"100.4277700000001, 5.475790000000075",100.42777,5.47579,Pulau Pinang,Seberang Perai Utara,P.042 Tasek Gelugor,N.05 Sungai Dua,hotspot,"DEWAN BANJIR LABUH BANTING, LABUH BANTING DAN KAMPUNG BARU GUAR PETAI",N.04 Permatang Berangan,5.446134704,100.4561267,4.553,FALSE
POINT (100.4293700000001 5.530170000000055),"Kampung Lahar Ikan Mati, Kepala Batas, Seberang Perai Utara, Pulau Pinang",Kg. Lahar Ikan Mati,"100.4293700000001, 5.530170000000055",100.42937,5.53017,Pulau Pinang,Seberang Perai Utara,P.041 Kepala Batas,N.02 Bertam,hotspot,"DEWAN BANJIR GUAR KEPAH, GUAR KEPAH",N.01 Penaga,5.55841,100.42072,3.283,FALSE
POINT (100.4468597591335 5.517845316081436),"Jalan Bertam, Kepala Batas, Seberang Perai Utara, 13200, Pulau Pinang",MPC Bertam,"100.4468597591335, 5.517845316081436",100.4468598,5.517845316,Pulau Pinang,Seberang Perai Utara,P.041 Kepala Batas,N.02 Bertam,hotspot,"DEWAN BANJIR KAMPUNG TOK BEDU, KAMPUNG TOK BEDU DAN KAMPUNG AIR MELINTAS BESAR",N.03 Pinang Tunggal,5.504625217,100.4819566,4.153,FALSE
POINT (100.4468597591335 5.517845316081436),"Jalan Bertam, Kepala Batas, Seberang Perai Utara, 13200, Pulau Pinang",Taman PGR Bertam,"100.4468597591335, 5.517845316081436",100.4468598,5.517845316,Pulau Pinang,Seberang Perai Utara,P.041 Kepala Batas,N.02 Bertam,hotspot,"DEWAN BANJIR KAMPUNG TOK BEDU, KAMPUNG TOK BEDU DAN KAMPUNG AIR MELINTAS BESAR",N.03 Pinang Tunggal,5.504625217,100.4819566,4.153,FALSE
POINT (100.4281900000001 5.51827000000003),"Kampung Kovil, Kepala Batas, Seberang Perai Utara, Pulau Pinang",Kg. Kovil,"100.4281900000001, 5.51827000000003",100.42819,5.51827,Pulau Pinang,Seberang Perai Utara,P.041 Kepala Batas,N.02 Bertam,hotspot,"DEWAN BANJIR GUAR KEPAH, GUAR KEPAH",N.01 Penaga,5.55841,100.42072,4.539,FALSE
POINT (100.3821083772494 5.497250033308404),"Jalan Sungai Abdul, Taman Padang Benggali, Butterworth, Seberang Perai Utara, 13050, Pulau Pinang",Muara Sg. Abdul,"100.3821083772494, 5.497250033308404",100.3821084,5.497250033,Pulau Pinang,Seberang Perai Utara,P.042 Tasek Gelugor,N.06 Telok Ayer Tawar,hotspot,"DEWAN BANJIR GUAR KEPAH, GUAR KEPAH",N.01 Penaga,5.55841,100.42072,8.032,FALSE
POINT (100.3811700000001 5.472280000000069),"Taman Wira, Butterworth, Seberang Perai Utara, Pulau Pinang",Taman Wira,"100.3811700000001, 5.472280000000069",100.38117,5.47228,Pulau Pinang,Seberang Perai Utara,P.042 Tasek Gelugor,N.06 Telok Ayer Tawar,hotspot,"SEKOLAH MENENGAH KEBANGSAAN RAJA TUN UDA, JALAN TENGAH, SG TIRAM, BUKIT GEDUNG",N.26 Padang Kota,5.424053946,100.3272178,8.026,FALSE
POINT (100.38525 5.477540000000033),"Taman Ratna, Butterworth, Seberang Perai Utara, Pulau Pinang",Taman Ratna,"100.38525, 5.477540000000033",100.38525,5.47754,Pulau Pinang,Seberang Perai Utara,P.042 Tasek Gelugor,N.06 Telok Ayer Tawar,hotspot,"DEWAN BANJIR LABUH BANTING, LABUH BANTING DAN KAMPUNG BARU GUAR PETAI",N.04 Permatang Berangan,5.446134704,100.4561267,8.587,FALSE
POINT (100.38338 5.449400000000026),"Taman Berlian, Butterworth, Seberang Perai Utara, Pulau Pinang",Taman Berlian,"100.38338, 5.449400000000026",100.38338,5.4494,Pulau Pinang,Seberang Perai Utara,P.042 Tasek Gelugor,N.06 Telok Ayer Tawar,hotspot,"DEWAN HAJI ZABIDI, KAMPUNG PERTAMA (DUN SEBERANG JAYA), KAMPUNG PERTAMA / PERMATANG JANGGUS",N.10 Seberang Jaya,5.39711,100.39938,6.078,FALSE
POINT (100.3824300000001 5.489190000000065),"Taman Melati, Butterworth, Seberang Perai Utara, Pulau Pinang",Taman Melati,"100.3824300000001, 5.489190000000065",100.38243,5.48919,Pulau Pinang,Seberang Perai Utara,P.042 Tasek Gelugor,N.06 Telok Ayer Tawar,hotspot,"DEWAN BANJIR GUAR KEPAH, GUAR KEPAH",N.01 Penaga,5.55841,100.42072,8.786,FALSE
POINT (100.3838420646629 5.445321518366973),"Jalan Meranti, Taman Meranti Indah, Butterworth, Seberang Perai Utara, 13000, Pulau Pinang",Taman Meranti,"100.3838420646629, 5.445321518366973",100.3838421,5.445321518,Pulau Pinang,Seberang Perai Utara,P.042 Tasek Gelugor,N.06 Telok Ayer Tawar,hotspot,"DEWAN HAJI ZABIDI, KAMPUNG PERTAMA (DUN SEBERANG JAYA), KAMPUNG PERTAMA / PERMATANG JANGGUS",N.10 Seberang Jaya,5.39711,100.39938,5.63,FALSE
POINT (100.37886 5.550430000000063),"Kampung Permatang Tok Labu, Penaga, Seberang Perai Utara, Pulau Pinang",Kg. Pmtg Tok Labu,"100.37886, 5.550430000000063",100.37886,5.55043,Pulau Pinang,Seberang Perai Utara,P.041 Kepala Batas,N.01 Penaga,hotspot,"DEWAN BANJIR RANTAU PANJANG, RANTAU PANJANGKAMPUNG GURUN",N.01 Penaga,5.57087,100.39898,3.182,TRUE
POINT (100.3675700000001 5.547220000000038),"Kampung Sungai Tembus, Penaga, Seberang Perai Utara, Pulau Pinang",Muara Sg. Tembus (Kampung 20),"100.3675700000001, 5.547220000000038",100.36757,5.54722,Pulau Pinang,Seberang Perai Utara,P.041 Kepala Batas,N.01 Penaga,hotspot,"DEWAN BANJIR RANTAU PANJANG, RANTAU PANJANGKAMPUNG GURUN",N.01 Penaga,5.57087,100.39898,4.359,TRUE
POINT (100.3804500000001 5.391980000000046),"Kampung Manis, Perai, Seberang Perai Tengah, Pulau Pinang",Kampung Manis,"100.3804500000001, 5.391980000000046",100.38045,5.39198,Pulau Pinang,Seberang Perai Tengah,P.046 Batu Kawan,N.16 Perai,hotspot,"SEK. KEB. JALAN BARU (DUN PERAI), JALAN BARU, PERAI",N.16 Perai,5.3852,100.38326,0.816,TRUE
POINT (100.4559600000001 5.448370000000068),"Kampung Labuh Banting, Tasek Gelugor, Seberang Perai Utara, Pulau Pinang",Kampung Labuh Banting,"100.4559600000001, 5.448370000000068",100.45596,5.44837,Pulau Pinang,Seberang Perai Utara,P.042 Tasek Gelugor,N.04 Permatang Berangan,hotspot,"DEWAN BANJIR LABUH BANTING, LABUH BANTING DAN KAMPUNG BARU GUAR PETAI",N.04 Permatang Berangan,5.446134704,100.4561267,0.249,TRUE
POINT (100.4349700000001 5.428540000000055),"Kampung Kota, Permatang Pauh, Seberang Perai Tengah, Pulau Pinang",Kampung Kota,"100.4349700000001, 5.428540000000055",100.43497,5.42854,Pulau Pinang,Seberang Perai Tengah,P.044 Permatang Pauh,N.11 Permatang Pasir,hotspot,"DEWAN ORANG RAMAI TANJUNG PUTUS (DUN PERMATANG PASIR), TANJUNG PUTUS",N.11 Permatang Pasir,5.41628,100.43864,1.422,TRUE
POINT (100.4590603520001 5.364177399000027),"Seberang Perai Tengah, Pulau Pinang",Kampung Kubu,"100.4590603520001, 5.364177399000027",100.4590604,5.364177399,Pulau Pinang,Seberang Perai Tengah,P.045 Bukit Mertajam,N.15 Padang Lalang,hotspot,"SEK. MEN. KEB. JIT SIN (DUN PADANG LALANG), TAMAN RAMBAI / TAMAN DESA DAMAI",N.10 Seberang Jaya,5.36858,100.44271,1.875,FALSE
POINT (100.45471 5.43285000000003),"Kampung Guar Jering, Kubang Semang, Seberang Perai Tengah, Pulau Pinang",Kampung Guar Jering,"100.45471, 5.43285000000003",100.45471,5.43285,Pulau Pinang,Seberang Perai Tengah,P.044 Permatang Pauh,N.12 Penanti,hotspot,"DEWAN BANJIR LABUH BANTING, LABUH BANTING DAN KAMPUNG BARU GUAR PETAI",N.04 Permatang Berangan,5.446134704,100.4561267,1.485,TRUE
POINT (100.4884922849939 5.350518970981003),"Jalan Kampung Teluk, Kampung Telok Bukit, Bukit Mertajam, Seberang Perai Tengah, 14000, Pulau Pinang",Kampung Terus,"100.4884922849939, 5.350518970981003",100.4884923,5.350518971,Pulau Pinang,Seberang Perai Tengah,P.045 Bukit Mertajam,N.14 Machang Bubuk,hotspot,"SURAU PERMATANG TOK SUBUH (DUN MACHANG BUBUK), KAMPUNG PERMATANG TOK SUBUH",N.14 Machang Bubuk,5.33492,100.5079,2.761,TRUE
POINT (100.4707782943799 5.430780530481565),"Jalan Bukit Berangan, Kampung Guar Perahu, Kubang Semang, Seberang Perai Tengah, 14400, Pulau Pinang",Kg. Bukit Berangan,"100.4707782943799, 5.430780530481565",100.4707783,5.43078053,Pulau Pinang,Seberang Perai Tengah,P.044 Permatang Pauh,N.12 Penanti,hotspot,"DEWAN BANJIR LABUH BANTING, LABUH BANTING DAN KAMPUNG BARU GUAR PETAI",N.04 Permatang Berangan,5.446134704,100.4561267,2.355,TRUE
POINT (100.38444 5.385290000000055),"Taman Senangin, Perai, Seberang Perai Tengah, Pulau Pinang",Taman Senangin,"100.38444, 5.385290000000055",100.38444,5.38529,Pulau Pinang,Seberang Perai Tengah,P.046 Batu Kawan,N.16 Perai,hotspot,"SEK. KEB. JALAN BARU (DUN PERAI), JALAN BARU, PERAI",N.16 Perai,5.3852,100.38326,0.131,TRUE
POINT (100.38401 5.390630000000044),"Taman Inderawasih, Perai, Seberang Perai Tengah, Pulau Pinang",Taman Inderawasih,"100.38401, 5.390630000000044",100.38401,5.39063,Pulau Pinang,Seberang Perai Tengah,P.046 Batu Kawan,N.16 Perai,hotspot,"SEK. KEB. JALAN BARU (DUN PERAI), JALAN BARU, PERAI",N.16 Perai,5.3852,100.38326,0.609,TRUE
POINT (100.38964 5.394200000000069),"Taman Kimsar, Perai, Seberang Perai Tengah, Pulau Pinang",Taman Kimsar,"100.38964, 5.394200000000069",100.38964,5.3942,Pulau Pinang,Seberang Perai Tengah,P.046 Batu Kawan,N.16 Perai,hotspot,"DEWAN HAJI ZABIDI, KAMPUNG PERTAMA (DUN SEBERANG JAYA), KAMPUNG PERTAMA / PERMATANG JANGGUS",N.10 Seberang Jaya,5.39711,100.39938,1.126,TRUE
POINT (100.3923697004522 5.404689943955987),"Jalan Jelawat, Kwsn Perindustrian Seberang Perai, Seberang Jaya, Seberang Perai Tengah, 13700, Pulau Pinang",BORR (Jalan Jelawat),"100.3923697004522, 5.404689943955987",100.3923697,5.404689944,Pulau Pinang,Seberang Perai Tengah,P.044 Permatang Pauh,N.10 Seberang Jaya,hotspot,"DEWAN HAJI ZABIDI, KAMPUNG PERTAMA (DUN SEBERANG JAYA), KAMPUNG PERTAMA / PERMATANG JANGGUS",N.10 Seberang Jaya,5.39711,100.39938,1.146,TRUE
POINT (100.4004361383955 5.401963811062677),"Lengkok Semilang, Desa Sembilang, Seberang Jaya, Seberang Perai Tengah, 13700, Pulau Pinang",Taman Semilang,"100.4004361383955, 5.401963811062677",100.4004361,5.401963811,Pulau Pinang,Seberang Perai Tengah,P.044 Permatang Pauh,N.10 Seberang Jaya,hotspot,"DEWAN HAJI ZABIDI, KAMPUNG PERTAMA (DUN SEBERANG JAYA), KAMPUNG PERTAMA / PERMATANG JANGGUS",N.10 Seberang Jaya,5.39711,100.39938,0.552,TRUE
POINT (100.4190650630831 5.38374504557985),"Jalan Permatang Pauh, Permatang Pauh, Seberang Perai Tengah, 13500, Pulau Pinang",Jalan Permatang Pauh (PLUS Highway),"100.4190650630831, 5.38374504557985",100.4190651,5.383745046,Pulau Pinang,Seberang Perai Tengah,P.044 Permatang Pauh,N.10 Seberang Jaya,hotspot,"DEWAN HAJI ZABIDI, KAMPUNG PERTAMA (DUN SEBERANG JAYA), KAMPUNG PERTAMA / PERMATANG JANGGUS",N.10 Seberang Jaya,5.39711,100.39938,2.638,TRUE
POINT (100.39507 5.378600000000063),"Taman Supreme, Perai, Seberang Perai Tengah, Pulau Pinang",Taman Supreme,"100.39507, 5.378600000000063",100.39507,5.3786,Pulau Pinang,Seberang Perai Tengah,P.046 Batu Kawan,N.16 Perai,hotspot,"SEK. KEB. JALAN BARU (DUN PERAI), JALAN BARU, PERAI",N.16 Perai,5.3852,100.38326,1.499,TRUE
POINT (100.3850200000001 5.384960000000035),"Taman Kepar, Perai, Seberang Perai Tengah, Pulau Pinang",Taman Kepar,"100.3850200000001, 5.384960000000035",100.38502,5.38496,Pulau Pinang,Seberang Perai Tengah,P.046 Batu Kawan,N.16 Perai,hotspot,"SEK. KEB. JALAN BARU (DUN PERAI), JALAN BARU, PERAI",N.16 Perai,5.3852,100.38326,0.197,TRUE
POINT (100.4916900000001 5.41560000000004),"Kampung Mengkuang Titi, Kubang Semang, Seberang Perai Tengah, Pulau Pinang",Kampung Mengkuang Titi,"100.4916900000001, 5.41560000000004",100.49169,5.4156,Pulau Pinang,Seberang Perai Tengah,P.044 Permatang Pauh,N.12 Penanti,hotspot,"SEK. REN. SRI IMPIAN GUAR PERAHU (DUN PENANTI), KAMPUNG MENGKUAN MAK SULONG / GUAR PERAHU",N.12 Penanti,5.40658,100.47596,2.01,TRUE
POINT (100.4851400000001 5.426850000000059),"Kampung Kuala Mengkuang, Kubang Semang, Seberang Perai Tengah, Pulau Pinang",Kampung Kuala Mengkuang,"100.4851400000001, 5.426850000000059",100.48514,5.42685,Pulau Pinang,Seberang Perai Tengah,P.044 Permatang Pauh,N.12 Penanti,hotspot,"SEK. REN. SRI IMPIAN GUAR PERAHU (DUN PENANTI), KAMPUNG MENGKUAN MAK SULONG / GUAR PERAHU",N.12 Penanti,5.40658,100.47596,2.472,TRUE
POINT (100.4959500000001 5.400420000000054),"Kampung Mengkuang, Bukit Mertajam, Seberang Perai Tengah, Pulau Pinang",Kampung Mengkuang Semarak,"100.4959500000001, 5.400420000000054",100.49595,5.40042,Pulau Pinang,Seberang Perai Tengah,P.044 Permatang Pauh,N.12 Penanti,hotspot,"SEK. REN. SRI IMPIAN GUAR PERAHU (DUN PENANTI), KAMPUNG MENGKUAN MAK SULONG / GUAR PERAHU",N.12 Penanti,5.40658,100.47596,2.316,TRUE
POINT (100.4959500000001 5.400420000000054),"Kampung Mengkuang, Bukit Mertajam, Seberang Perai Tengah, Pulau Pinang",Kampung Mengkuang,"100.4959500000001, 5.400420000000054",100.49595,5.40042,Pulau Pinang,Seberang Perai Tengah,P.044 Permatang Pauh,N.12 Penanti,hotspot,"SEK. REN. SRI IMPIAN GUAR PERAHU (DUN PENANTI), KAMPUNG MENGKUAN MAK SULONG / GUAR PERAHU",N.12 Penanti,5.40658,100.47596,2.316,TRUE
POINT (100.41853 5.389330000000029),"Kampung Pertama, Permatang Pauh, Seberang Perai Tengah, Pulau Pinang",Kampung Pertama,"100.41853, 5.389330000000029",100.41853,5.38933,Pulau Pinang,Seberang Perai Tengah,P.044 Permatang Pauh,N.10 Seberang Jaya,hotspot,"DEWAN HAJI ZABIDI, KAMPUNG PERTAMA (DUN SEBERANG JAYA), KAMPUNG PERTAMA / PERMATANG JANGGUS",N.10 Seberang Jaya,5.39711,100.39938,2.29,TRUE
POINT (100.4644700000001 5.395240000000058),"Kampung Kubang Semang, Bukit Mertajam, Seberang Perai Tengah, Pulau Pinang",Kampung Kubang Semang,"100.4644700000001, 5.395240000000058",100.46447,5.39524,Pulau Pinang,Seberang Perai Tengah,P.044 Permatang Pauh,N.12 Penanti,hotspot,"SEK. REN. SRI IMPIAN GUAR PERAHU (DUN PENANTI), KAMPUNG MENGKUAN MAK SULONG / GUAR PERAHU",N.12 Penanti,5.40658,100.47596,1.791,TRUE
POINT (100.39367 5.387020000000064),"Taman Chai Leng, Perai, Seberang Perai Tengah, Pulau Pinang",Taman Chai Leng,"100.39367, 5.387020000000064",100.39367,5.38702,Pulau Pinang,Seberang Perai Tengah,P.046 Batu Kawan,N.16 Perai,hotspot,"SEK. KEB. JALAN BARU (DUN PERAI), JALAN BARU, PERAI",N.16 Perai,5.3852,100.38326,1.17,TRUE
POINT (100.4603622744625 5.405201915439117),"Jalan Bukit Indera Muda, Kampung Petani, Kubang Semang, Seberang Perai Tengah, 14400, Pulau Pinang",Kampung Bukit Indera Muda,"100.4603622744625, 5.405201915439117",100.4603623,5.405201915,Pulau Pinang,Seberang Perai Tengah,P.044 Permatang Pauh,N.11 Permatang Pasir,hotspot,"SEK. REN. SRI IMPIAN GUAR PERAHU (DUN PENANTI), KAMPUNG MENGKUAN MAK SULONG / GUAR PERAHU",N.12 Penanti,5.40658,100.47596,1.733,TRUE
POINT (100.46828 5.388060000000053),"Kampung Tok Elong, Bukit Mertajam, Seberang Perai Tengah, Pulau Pinang",Kampung Tok Elong,"100.46828, 5.388060000000053",100.46828,5.38806,Pulau Pinang,Seberang Perai Tengah,P.044 Permatang Pauh,N.12 Penanti,hotspot,"DEWAN SERBAGUNA PASAR AWAM KAMPUNG BARU, BERAPIT (DUN BERAPIT), KAMPUNG BARU / TAMAN BEE / TAMAN PERPADUAN",N.13 Berapit,5.37857,100.47432,1.249,TRUE
POINT (100.40171 5.383870000000059),"Taman Siakap, Seberang Jaya, Seberang Perai Tengah, Pulau Pinang",Taman Siakap,"100.40171, 5.383870000000059",100.40171,5.38387,Pulau Pinang,Seberang Perai Tengah,P.044 Permatang Pauh,N.10 Seberang Jaya,hotspot,"DEWAN HAJI ZABIDI, KAMPUNG PERTAMA (DUN SEBERANG JAYA), KAMPUNG PERTAMA / PERMATANG JANGGUS",N.10 Seberang Jaya,5.39711,100.39938,1.495,TRUE
POINT (100.4113 5.340100000000064),"Kampung Kuala Juru, Bukit Mertajam, Seberang Perai Tengah, Pulau Pinang",Kg. Kuala Juru,"100.4113, 5.340100000000064",100.4113,5.3401,Pulau Pinang,Seberang Perai Tengah,P.046 Batu Kawan,N.17 Bukit Tengah,hotspot,"DEWAN SENTOL JAYA (DUN BUKIT TENGAH), TAMAN SENTOL JAYA",N.17 Bukit Tengah,5.34605,100.43917,3.156,TRUE
POINT (100.4487100000001 5.364720000000034),"Taman Makok, Bukit Mertajam, Seberang Perai Tengah, Pulau Pinang",Taman Makok,"100.4487100000001, 5.364720000000034",100.44871,5.36472,Pulau Pinang,Seberang Perai Tengah,P.045 Bukit Mertajam,N.15 Padang Lalang,hotspot,"SEK. MEN. KEB. JIT SIN (DUN PADANG LALANG), TAMAN RAMBAI / TAMAN DESA DAMAI",N.10 Seberang Jaya,5.36858,100.44271,0.791,FALSE
POINT (100.4365273267883 5.364604426093162),"Jalan Padang Lalang, Bukit Mertajam, Seberang Perai Tengah, 14000, Pulau Pinang",Kg. Padang Lalang,"100.4365273267883, 5.364604426093162",100.4365273,5.364604426,Pulau Pinang,Seberang Perai Tengah,P.046 Batu Kawan,N.17 Bukit Tengah,hotspot,"SEK. MEN. KEB. JIT SIN (DUN PADANG LALANG), TAMAN RAMBAI / TAMAN DESA DAMAI",N.10 Seberang Jaya,5.36858,100.44271,0.815,TRUE
POINT (100.446515453782 5.352851438592352),"Jalan Tembikai, Taman Mutiara, Bukit Mertajam, Seberang Perai Tengah, 14000, Pulau Pinang",Taman Jalan Tembikai (Taman Mutiara),"100.446515453782, 5.352851438592352",100.4465155,5.352851439,Pulau Pinang,Seberang Perai Tengah,P.045 Bukit Mertajam,N.15 Padang Lalang,hotspot,"DEWAN SENTOL JAYA (DUN BUKIT TENGAH), TAMAN SENTOL JAYA",N.17 Bukit Tengah,5.34605,100.43917,1.111,FALSE
POINT (100.44924 5.360830000000021),"Taman Sungai Rambai, Bukit Mertajam, Seberang Perai Tengah, Pulau Pinang",Taman Sungai Rambai,"100.44924, 5.360830000000021",100.44924,5.36083,Pulau Pinang,Seberang Perai Tengah,P.045 Bukit Mertajam,N.15 Padang Lalang,hotspot,"SEK. MEN. KEB. JIT SIN (DUN PADANG LALANG), TAMAN RAMBAI / TAMAN DESA DAMAI",N.10 Seberang Jaya,5.36858,100.44271,1.125,FALSE
POINT (100.4463400000001 5.350450000000023),"Taman Sri Rambai, Bukit Mertajam, Seberang Perai Tengah, Pulau Pinang",Taman Sri Rambai,"100.4463400000001, 5.350450000000023",100.44634,5.35045,Pulau Pinang,Seberang Perai Tengah,P.045 Bukit Mertajam,N.15 Padang Lalang,hotspot,"DEWAN SENTOL JAYA (DUN BUKIT TENGAH), TAMAN SENTOL JAYA",N.17 Bukit Tengah,5.34605,100.43917,0.932,FALSE
POINT (100.5110700000001 5.334040000000073),"Taman Jambu, Bukit Mertajam, Seberang Perai Tengah, Pulau Pinang",Taman Jambu,"100.5110700000001, 5.334040000000073",100.51107,5.33404,Pulau Pinang,Seberang Perai Tengah,P.045 Bukit Mertajam,N.14 Machang Bubuk,hotspot,"SURAU PERMATANG TOK SUBUH (DUN MACHANG BUBUK), KAMPUNG PERMATANG TOK SUBUH",N.14 Machang Bubuk,5.33492,100.5079,0.364,TRUE
POINT (100.4392700000001 5.348860000000059),"Taman Belimbing, Bukit Mertajam, Seberang Perai Tengah, Pulau Pinang",Taman Belimbing,"100.4392700000001, 5.348860000000059",100.43927,5.34886,Pulau Pinang,Seberang Perai Tengah,P.046 Batu Kawan,N.17 Bukit Tengah,hotspot,"DEWAN SENTOL JAYA (DUN BUKIT TENGAH), TAMAN SENTOL JAYA",N.17 Bukit Tengah,5.34605,100.43917,0.313,TRUE
POINT (100.4426000000001 5.360730000000046),"Taman Desa Damai, Bukit Mertajam, Seberang Perai Tengah, Pulau Pinang",Taman Desa Damai,"100.4426000000001, 5.360730000000046",100.4426,5.36073,Pulau Pinang,Seberang Perai Tengah,P.045 Bukit Mertajam,N.15 Padang Lalang,hotspot,"SEK. MEN. KEB. JIT SIN (DUN PADANG LALANG), TAMAN RAMBAI / TAMAN DESA DAMAI",N.10 Seberang Jaya,5.36858,100.44271,0.873,FALSE
POINT (100.4194400000001 5.390580000000057),"Taman Janggus, Permatang Pauh, Seberang Perai Tengah, Pulau Pinang",Taman Janggus,"100.4194400000001, 5.390580000000057",100.41944,5.39058,Pulau Pinang,Seberang Perai Tengah,P.044 Permatang Pauh,N.10 Seberang Jaya,hotspot,"DEWAN HAJI ZABIDI, KAMPUNG PERTAMA (DUN SEBERANG JAYA), KAMPUNG PERTAMA / PERMATANG JANGGUS",N.10 Seberang Jaya,5.39711,100.39938,2.336,TRUE
POINT (100.4497500000001 5.372080000000039),"Kampung Permatang Rawa, Bukit Mertajam, Seberang Perai Tengah, Pulau Pinang",Kg. Pmtg Rawa,"100.4497500000001, 5.372080000000039",100.44975,5.37208,Pulau Pinang,Seberang Perai Tengah,P.044 Permatang Pauh,N.11 Permatang Pasir,hotspot,"SEK. MEN. KEB. JIT SIN (DUN PADANG LALANG), TAMAN RAMBAI / TAMAN DESA DAMAI",N.10 Seberang Jaya,5.36858,100.44271,0.871,TRUE
POINT (100.4630200000001 5.382350000000031),"Taman Guru, Bukit Mertajam, Seberang Perai Tengah, Pulau Pinang",Taman Guru,"100.4630200000001, 5.382350000000031",100.46302,5.38235,Pulau Pinang,Seberang Perai Tengah,P.044 Permatang Pauh,N.11 Permatang Pasir,hotspot,"DEWAN SERBAGUNA PASAR AWAM KAMPUNG BARU, BERAPIT (DUN BERAPIT), KAMPUNG BARU / TAMAN BEE / TAMAN PERPADUAN",N.13 Berapit,5.37857,100.47432,1.32,TRUE
POINT (100.4731 5.382110000000068),"Perkampungan Berapit, Bukit Mertajam, Seberang Perai Tengah, Pulau Pinang",Perkampungan Berapit,"100.4731, 5.382110000000068",100.4731,5.38211,Pulau Pinang,Seberang Perai Tengah,P.045 Bukit Mertajam,N.13 Berapit,hotspot,"DEWAN SERBAGUNA PASAR AWAM KAMPUNG BARU, BERAPIT (DUN BERAPIT), KAMPUNG BARU / TAMAN BEE / TAMAN PERPADUAN",N.13 Berapit,5.37857,100.47432,0.416,TRUE
POINT (100.4637500000001 5.383340000000032),"Kampung Tanah Liat, Bukit Mertajam, Seberang Perai Tengah, Pulau Pinang",Kg. Tanah Liat,"100.4637500000001, 5.383340000000032",100.46375,5.38334,Pulau Pinang,Seberang Perai Tengah,P.044 Permatang Pauh,N.12 Penanti,hotspot,"DEWAN SERBAGUNA PASAR AWAM KAMPUNG BARU, BERAPIT (DUN BERAPIT), KAMPUNG BARU / TAMAN BEE / TAMAN PERPADUAN",N.13 Berapit,5.37857,100.47432,1.285,TRUE
POINT (100.4776604933678 5.302364209448437),"Jalan Permatang, Kampung Permatang Tinggi, Bukit Mertajam, Seberang Perai Tengah, 14000, Pulau Pinang",Kg. Pmtg Ara,"100.4776604933678, 5.302364209448437",100.4776605,5.302364209,Pulau Pinang,Seberang Perai Tengah,P.045 Bukit Mertajam,N.14 Machang Bubuk,hotspot,"DEWAN JKKK ALMA (DUN MACHANG BUBUK), nan",N.14 Machang Bubuk,5.319744921,100.4768727,1.935,TRUE
POINT (100.4541600000001 5.366870000000063),"Taman Tan Sai Gin, Bukit Mertajam, Seberang Perai Tengah, Pulau Pinang",Taman Tan Sai Gin,"100.4541600000001, 5.366870000000063",100.45416,5.36687,Pulau Pinang,Seberang Perai Tengah,P.045 Bukit Mertajam,N.15 Padang Lalang,hotspot,"SEK. MEN. KEB. JIT SIN (DUN PADANG LALANG), TAMAN RAMBAI / TAMAN DESA DAMAI",N.10 Seberang Jaya,5.36858,100.44271,1.282,FALSE
POINT (100.4590603520001 5.364177399000027),"Seberang Perai Tengah, Pulau Pinang",Kampung Cross Street,"100.4590603520001, 5.364177399000027",100.4590604,5.364177399,Pulau Pinang,Seberang Perai Tengah,P.045 Bukit Mertajam,N.15 Padang Lalang,hotspot,"SEK. MEN. KEB. JIT SIN (DUN PADANG LALANG), TAMAN RAMBAI / TAMAN DESA DAMAI",N.10 Seberang Jaya,5.36858,100.44271,1.875,FALSE
POINT (100.46527 5.342570000000023),"Kampung Baru Alma, Bukit Mertajam, Seberang Perai Tengah, Pulau Pinang",Kg. Baru Alma,"100.46527, 5.342570000000023",100.46527,5.34257,Pulau Pinang,Seberang Perai Tengah,P.045 Bukit Mertajam,N.15 Padang Lalang,hotspot,"DEWAN JKKK ALMA (DUN MACHANG BUBUK), nan",N.14 Machang Bubuk,5.319744921,100.4768727,2.845,FALSE
POINT (100.4705400000001 5.330600000000061),"Kampung Alma, Bukit Mertajam, Seberang Perai Tengah, Pulau Pinang",Kg. Alma,"100.4705400000001, 5.330600000000061",100.47054,5.3306,Pulau Pinang,Seberang Perai Tengah,P.045 Bukit Mertajam,N.14 Machang Bubuk,hotspot,"DEWAN JKKK ALMA (DUN MACHANG BUBUK), nan",N.14 Machang Bubuk,5.319744921,100.4768727,1.396,TRUE
POINT (100.47522 5.339780000000076),"Taman Alma, Bukit Mertajam, Seberang Perai Tengah, Pulau Pinang",Taman Alma,"100.47522, 5.339780000000076",100.47522,5.33978,Pulau Pinang,Seberang Perai Tengah,P.045 Bukit Mertajam,N.13 Berapit,hotspot,"DEWAN JKKK ALMA (DUN MACHANG BUBUK), nan",N.14 Machang Bubuk,5.319744921,100.4768727,2.235,TRUE
POINT (100.45651 5.343090000000075),"Taman Kota Permai, Bukit Mertajam, Seberang Perai Tengah, Pulau Pinang",Taman Kota Permai,"100.45651, 5.343090000000075",100.45651,5.34309,Pulau Pinang,Seberang Perai Tengah,P.045 Bukit Mertajam,N.15 Padang Lalang,hotspot,"DEWAN SENTOL JAYA (DUN BUKIT TENGAH), TAMAN SENTOL JAYA",N.17 Bukit Tengah,5.34605,100.43917,1.948,FALSE
POINT (100.48967 5.336810000000071),"Taman Sejahtera, Bukit Mertajam, Seberang Perai Tengah, Pulau Pinang",Taman Sejahtera,"100.48967, 5.336810000000071",100.48967,5.33681,Pulau Pinang,Seberang Perai Tengah,P.045 Bukit Mertajam,N.14 Machang Bubuk,hotspot,"SURAU PERMATANG TOK SUBUH (DUN MACHANG BUBUK), KAMPUNG PERMATANG TOK SUBUH",N.14 Machang Bubuk,5.33492,100.5079,2.029,TRUE
POINT (100.4978 5.331750000000056),"Taman Sejahtera Permai, Bukit Mertajam, Seberang Perai Tengah, Pulau Pinang",Taman Sejahtera Permai,"100.4978, 5.331750000000056",100.4978,5.33175,Pulau Pinang,Seberang Perai Tengah,P.045 Bukit Mertajam,N.14 Machang Bubuk,hotspot,"SURAU PERMATANG TOK SUBUH (DUN MACHANG BUBUK), KAMPUNG PERMATANG TOK SUBUH",N.14 Machang Bubuk,5.33492,100.5079,1.172,TRUE
POINT (100.48749 5.329760000000022),"Taman Selamat, Bukit Mertajam, Seberang Perai Tengah, Pulau Pinang",Taman Selamat,"100.48749, 5.329760000000022",100.48749,5.32976,Pulau Pinang,Seberang Perai Tengah,P.045 Bukit Mertajam,N.14 Machang Bubuk,hotspot,"DEWAN JKKK ALMA (DUN MACHANG BUBUK), nan",N.14 Machang Bubuk,5.319744921,100.4768727,1.619,TRUE
POINT (100.4634100000001 5.337950000000035),"Taman Permai Jaya, Bukit Mertajam, Seberang Perai Tengah, Pulau Pinang",Taman Permai Jaya,"100.4634100000001, 5.337950000000035",100.46341,5.33795,Pulau Pinang,Seberang Perai Tengah,P.045 Bukit Mertajam,N.15 Padang Lalang,hotspot,"DEWAN JKKK ALMA (DUN MACHANG BUBUK), nan",N.14 Machang Bubuk,5.319744921,100.4768727,2.514,FALSE
POINT (100.4630350603084 5.335900031652251),"Jalan Bukit Minyak, Taman Permai Jaya, Bukit Mertajam, Seberang Perai Tengah, 14000, Pulau Pinang",Jalan Bukit Minyak (Hadapan SMK Alma),"100.4630350603084, 5.335900031652251",100.4630351,5.335900032,Pulau Pinang,Seberang Perai Tengah,P.045 Bukit Mertajam,N.15 Padang Lalang,hotspot,"DEWAN JKKK ALMA (DUN MACHANG BUBUK), nan",N.14 Machang Bubuk,5.319744921,100.4768727,2.361,FALSE
POINT (100.4555000000001 5.334120000000041),"Kampung Telok, Bukit Mertajam, Seberang Perai Tengah, Pulau Pinang",Kampung Telok,"100.4555000000001, 5.334120000000041",100.4555,5.33412,Pulau Pinang,Seberang Perai Tengah,P.045 Bukit Mertajam,N.14 Machang Bubuk,hotspot,"DEWAN SENTOL JAYA (DUN BUKIT TENGAH), TAMAN SENTOL JAYA",N.17 Bukit Tengah,5.34605,100.43917,2.242,TRUE
POINT (100.4753600000001 5.326560000000029),"Kampung Kijang, Bukit Mertajam, Seberang Perai Tengah, Pulau Pinang",Kg. Kijang,"100.4753600000001, 5.326560000000029",100.47536,5.32656,Pulau Pinang,Seberang Perai Tengah,P.045 Bukit Mertajam,N.14 Machang Bubuk,hotspot,"DEWAN JKKK ALMA (DUN MACHANG BUBUK), nan",N.14 Machang Bubuk,5.319744921,100.4768727,0.776,TRUE
POINT (100.4416107286018 5.354894117895981),"Jalan Nangka, Taman Gemilang Jaya, Bukit Mertajam, Seberang Perai Tengah, 14000, Pulau Pinang",Taman Nangka,"100.4416107286018, 5.354894117895981",100.4416107,5.354894118,Pulau Pinang,Seberang Perai Tengah,P.045 Bukit Mertajam,N.15 Padang Lalang,hotspot,"DEWAN SENTOL JAYA (DUN BUKIT TENGAH), TAMAN SENTOL JAYA",N.17 Bukit Tengah,5.34605,100.43917,1.02,FALSE
POINT (100.4365500000001 5.357610000000022),"Kampung Kebun Sireh, Bukit Mertajam, Seberang Perai Tengah, Pulau Pinang",Kg. Kebun Sireh,"100.4365500000001, 5.357610000000022",100.43655,5.35761,Pulau Pinang,Seberang Perai Tengah,P.046 Batu Kawan,N.17 Bukit Tengah,hotspot,"DEWAN SENTOL JAYA (DUN BUKIT TENGAH), TAMAN SENTOL JAYA",N.17 Bukit Tengah,5.34605,100.43917,1.318,TRUE
POINT (100.4325600000001 5.360030000000052),"Kampung Sungai Siam, Bukit Mertajam, Seberang Perai Tengah, Pulau Pinang",Kg. Siam,"100.4325600000001, 5.360030000000052",100.43256,5.36003,Pulau Pinang,Seberang Perai Tengah,P.046 Batu Kawan,N.17 Bukit Tengah,hotspot,"SEK. MEN. KEB. JIT SIN (DUN PADANG LALANG), TAMAN RAMBAI / TAMAN DESA DAMAI",N.10 Seberang Jaya,5.36858,100.44271,1.472,TRUE
POINT (100.4332800000001 5.350700000000074),"Taman Binjai, Bukit Mertajam, Seberang Perai Tengah, Pulau Pinang",Taman Binjai,"100.4332800000001, 5.350700000000074",100.43328,5.3507,Pulau Pinang,Seberang Perai Tengah,P.046 Batu Kawan,N.17 Bukit Tengah,hotspot,"DEWAN SENTOL JAYA (DUN BUKIT TENGAH), TAMAN SENTOL JAYA",N.17 Bukit Tengah,5.34605,100.43917,0.832,TRUE
POINT (100.4303236290383 5.36037182847348),"Jalan Kebun, Kampung Sungai Siam, Bukit Mertajam, Seberang Perai Tengah, 14000, Pulau Pinang",Kg. Kebun Nenas,"100.4303236290383, 5.36037182847348",100.4303236,5.360371828,Pulau Pinang,Seberang Perai Tengah,P.046 Batu Kawan,N.17 Bukit Tengah,hotspot,"SEK. MEN. KEB. JIT SIN (DUN PADANG LALANG), TAMAN RAMBAI / TAMAN DESA DAMAI",N.10 Seberang Jaya,5.36858,100.44271,1.647,TRUE
POINT (100.445354799063 5.35470512606833),"Jalan Tembikai, Taman Sri Rambai, Bukit Mertajam, Seberang Perai Tengah, 14000, Pulau Pinang",Jalan Tembikai,"100.445354799063, 5.35470512606833",100.4453548,5.354705126,Pulau Pinang,Seberang Perai Tengah,P.045 Bukit Mertajam,N.15 Padang Lalang,hotspot,"DEWAN SENTOL JAYA (DUN BUKIT TENGAH), TAMAN SENTOL JAYA",N.17 Bukit Tengah,5.34605,100.43917,1.181,FALSE
POINT (100.4452098342661 5.361220692112598),"Jalan Cempedak, Taman Binjai, Bukit Mertajam, Seberang Perai Tengah, 14000, Pulau Pinang",Taman Cempedak,"100.4452098342661, 5.361220692112598",100.4452098,5.361220692,Pulau Pinang,Seberang Perai Tengah,P.045 Bukit Mertajam,N.15 Padang Lalang,hotspot,"SEK. MEN. KEB. JIT SIN (DUN PADANG LALANG), TAMAN RAMBAI / TAMAN DESA DAMAI",N.10 Seberang Jaya,5.36858,100.44271,0.864,FALSE
POINT (100.4795000000001 5.328250000000025),"Kawasan Industri Alma, Bukit Mertajam, Seberang Perai Tengah, Pulau Pinang",Kawasan Industri Juru,"100.4795000000001, 5.328250000000025",100.4795,5.32825,Pulau Pinang,Seberang Perai Tengah,P.045 Bukit Mertajam,N.14 Machang Bubuk,hotspot,"DEWAN JKKK ALMA (DUN MACHANG BUBUK), nan",N.14 Machang Bubuk,5.319744921,100.4768727,0.989,TRUE
POINT (100.4403 5.313890000000072),"Taman Mangga, Bukit Mertajam, Seberang Perai Tengah, Pulau Pinang",Taman Mangga,"100.4403, 5.313890000000072",100.4403,5.31389,Pulau Pinang,Seberang Perai Tengah,P.046 Batu Kawan,N.17 Bukit Tengah,hotspot,"DEWAN SENTOL JAYA (DUN BUKIT TENGAH), TAMAN SENTOL JAYA",N.17 Bukit Tengah,5.34605,100.43917,3.578,TRUE
POINT (100.44401 5.316090000000031),"Perkampungan Juru, Bukit Mertajam, Seberang Perai Tengah, Pulau Pinang",Perkampungan Juru,"100.44401, 5.316090000000031",100.44401,5.31609,Pulau Pinang,Seberang Perai Tengah,P.046 Batu Kawan,N.17 Bukit Tengah,hotspot,"DEWAN SENTOL JAYA (DUN BUKIT TENGAH), TAMAN SENTOL JAYA",N.17 Bukit Tengah,5.34605,100.43917,3.374,TRUE
POINT (100.44016 5.315080000000023),"Taman Pinang, Bukit Mertajam, Seberang Perai Tengah, Pulau Pinang",Taman Pinang,"100.44016, 5.315080000000023",100.44016,5.31508,Pulau Pinang,Seberang Perai Tengah,P.046 Batu Kawan,N.17 Bukit Tengah,hotspot,"DEWAN SENTOL JAYA (DUN BUKIT TENGAH), TAMAN SENTOL JAYA",N.17 Bukit Tengah,5.34605,100.43917,3.445,TRUE
POINT (100.44221 5.318020000000047),"Taman Sentul, Bukit Mertajam, Seberang Perai Tengah, Pulau Pinang",Taman Sentul,"100.44221, 5.318020000000047",100.44221,5.31802,Pulau Pinang,Seberang Perai Tengah,P.046 Batu Kawan,N.17 Bukit Tengah,hotspot,"DEWAN SENTOL JAYA (DUN BUKIT TENGAH), TAMAN SENTOL JAYA",N.17 Bukit Tengah,5.34605,100.43917,3.135,TRUE
POINT (100.44176 5.319960000000037),"Taman Sentul Jaya, Bukit Mertajam, Seberang Perai Tengah, Pulau Pinang",Taman Sentul Jaya,"100.44176, 5.319960000000037",100.44176,5.31996,Pulau Pinang,Seberang Perai Tengah,P.046 Batu Kawan,N.17 Bukit Tengah,hotspot,"DEWAN SENTOL JAYA (DUN BUKIT TENGAH), TAMAN SENTOL JAYA",N.17 Bukit Tengah,5.34605,100.43917,2.915,TRUE
POINT (100.4250600000001 5.359840000000077),"Taman Kerjasama, Bukit Mertajam, Seberang Perai Tengah, Pulau Pinang",Taman Kerjasama,"100.4250600000001, 5.359840000000077",100.42506,5.35984,Pulau Pinang,Seberang Perai Tengah,P.046 Batu Kawan,N.17 Bukit Tengah,hotspot,"SEK. MEN. KEB. JIT SIN (DUN PADANG LALANG), TAMAN RAMBAI / TAMAN DESA DAMAI",N.10 Seberang Jaya,5.36858,100.44271,2.182,TRUE
POINT (100.42303 5.361990000000048),"Kampung Tok Panjang, Bukit Mertajam, Seberang Perai Tengah, Pulau Pinang",Kg. Tok Panjang,"100.42303, 5.361990000000048",100.42303,5.36199,Pulau Pinang,Seberang Perai Tengah,P.046 Batu Kawan,N.17 Bukit Tengah,hotspot,"SEK. MEN. KEB. JIT SIN (DUN PADANG LALANG), TAMAN RAMBAI / TAMAN DESA DAMAI",N.10 Seberang Jaya,5.36858,100.44271,2.299,TRUE
POINT (100.4268500000001 5.35922000000005),Shell,Shell Bukit Tengah,"100.4268500000001, 5.35922000000005",100.42685,5.35922,Pulau Pinang,Seberang Perai Tengah,P.046 Batu Kawan,N.17 Bukit Tengah,hotspot,"DEWAN SENTOL JAYA (DUN BUKIT TENGAH), TAMAN SENTOL JAYA",N.17 Bukit Tengah,5.34605,100.43917,2.001,TRUE
POINT (100.4842800000001 5.297670000000039),"Kampung Manggis, Bukit Mertajam, Seberang Perai Tengah, Pulau Pinang",Kg. Manggis,"100.4842800000001, 5.297670000000039",100.48428,5.29767,Pulau Pinang,Seberang Perai Tengah,P.045 Bukit Mertajam,N.14 Machang Bubuk,hotspot,"DEWAN ORANG RAMAI KUALA TASEK (DUN MACHANG BUBUK), nan",N.14 Machang Bubuk,5.3,100.5,1.76,TRUE
POINT (100.4986400000001 5.298780000000022),"Kampung Kuala Tasek, Bukit Mertajam, Seberang Perai Tengah, Pulau Pinang",Kg. Kuala Tasek,"100.4986400000001, 5.298780000000022",100.49864,5.29878,Pulau Pinang,Seberang Perai Tengah,P.045 Bukit Mertajam,N.14 Machang Bubuk,hotspot,"DEWAN ORANG RAMAI KUALA TASEK (DUN MACHANG BUBUK), nan",N.14 Machang Bubuk,5.3,100.5,0.203,TRUE
POINT (100.5011500000001 5.339330000000075),"Taman Machang Bubok, Bukit Mertajam, Seberang Perai Tengah, Pulau Pinang",Taman Machang Bubuk,"100.5011500000001, 5.339330000000075",100.50115,5.33933,Pulau Pinang,Seberang Perai Tengah,P.045 Bukit Mertajam,N.14 Machang Bubuk,hotspot,"SURAU PERMATANG TOK SUBUH (DUN MACHANG BUBUK), KAMPUNG PERMATANG TOK SUBUH",N.14 Machang Bubuk,5.33492,100.5079,0.894,TRUE
POINT (100.5144000000001 5.337610000000041),"Kampung Machang Bubuk, Bukit Mertajam, Seberang Perai Tengah, Pulau Pinang",Kampung Machang Bubuk,"100.5144000000001, 5.337610000000041",100.5144,5.33761,Pulau Pinang,Seberang Perai Tengah,P.045 Bukit Mertajam,N.14 Machang Bubuk,hotspot,"SURAU PERMATANG TOK SUBUH (DUN MACHANG BUBUK), KAMPUNG PERMATANG TOK SUBUH",N.14 Machang Bubuk,5.33492,100.5079,0.779,TRUE
POINT (100.4590603520001 5.364177399000027),"Seberang Perai Tengah, Pulau Pinang",Kg. Tok Musa,"100.4590603520001, 5.364177399000027",100.4590604,5.364177399,Pulau Pinang,Seberang Perai Tengah,P.045 Bukit Mertajam,N.15 Padang Lalang,hotspot,"SEK. MEN. KEB. JIT SIN (DUN PADANG LALANG), TAMAN RAMBAI / TAMAN DESA DAMAI",N.10 Seberang Jaya,5.36858,100.44271,1.875,FALSE
POINT (100.52369 5.346940000000075),"Taman Macang Manis, Bukit Mertajam, Seberang Perai Tengah, Pulau Pinang",Taman Macang Manis,"100.52369, 5.346940000000075",100.52369,5.34694,Pulau Pinang,Seberang Perai Tengah,P.045 Bukit Mertajam,N.14 Machang Bubuk,hotspot,"SURAU PERMATANG TOK SUBUH (DUN MACHANG BUBUK), KAMPUNG PERMATANG TOK SUBUH",N.14 Machang Bubuk,5.33492,100.5079,2.201,TRUE
POINT (100.4590603520001 5.364177399000027),"Seberang Perai Tengah, Pulau Pinang",Kg. Tok Konan,"100.4590603520001, 5.364177399000027",100.4590604,5.364177399,Pulau Pinang,Seberang Perai Tengah,P.045 Bukit Mertajam,N.15 Padang Lalang,hotspot,"SEK. MEN. KEB. JIT SIN (DUN PADANG LALANG), TAMAN RAMBAI / TAMAN DESA DAMAI",N.10 Seberang Jaya,5.36858,100.44271,1.875,FALSE
POINT (100.4590603520001 5.364177399000027),"Seberang Perai Tengah, Pulau Pinang",Bukit Teh,"100.4590603520001, 5.364177399000027",100.4590604,5.364177399,Pulau Pinang,Seberang Perai Tengah,P.045 Bukit Mertajam,N.15 Padang Lalang,hotspot,"SEK. MEN. KEB. JIT SIN (DUN PADANG LALANG), TAMAN RAMBAI / TAMAN DESA DAMAI",N.10 Seberang Jaya,5.36858,100.44271,1.875,FALSE
POINT (100.5112500000001 5.321930000000066),"Kampung Berangan Sembilan, Bukit Mertajam, Seberang Perai Tengah, Pulau Pinang",Kg. Berangan Sembilan,"100.5112500000001, 5.321930000000066",100.51125,5.32193,Pulau Pinang,Seberang Perai Tengah,P.045 Bukit Mertajam,N.14 Machang Bubuk,hotspot,"DEWAN JKKK BUKIT TEH (DUN MACHANG BUBUK), KAMPUNG BUKIT TEH",N.14 Machang Bubuk,5.322714707,100.5137451,0.29,TRUE
POINT (100.5110700000001 5.334040000000073),"Taman Jambu, Bukit Mertajam, Seberang Perai Tengah, Pulau Pinang",Taman Jambu,"100.5110700000001, 5.334040000000073",100.51107,5.33404,Pulau Pinang,Seberang Perai Tengah,P.045 Bukit Mertajam,N.14 Machang Bubuk,hotspot,"SURAU PERMATANG TOK SUBUH (DUN MACHANG BUBUK), KAMPUNG PERMATANG TOK SUBUH",N.14 Machang Bubuk,5.33492,100.5079,0.364,TRUE
POINT (100.4590603520001 5.364177399000027),"Seberang Perai Tengah, Pulau Pinang",Kg. Tok Subuh,"100.4590603520001, 5.364177399000027",100.4590604,5.364177399,Pulau Pinang,Seberang Perai Tengah,P.045 Bukit Mertajam,N.15 Padang Lalang,hotspot,"SEK. MEN. KEB. JIT SIN (DUN PADANG LALANG), TAMAN RAMBAI / TAMAN DESA DAMAI",N.10 Seberang Jaya,5.36858,100.44271,1.875,FALSE
POINT (100.4799800000001 5.314690000000041),"Taman Impian, Bukit Mertajam, Seberang Perai Tengah, Pulau Pinang",Taman Impian,"100.4799800000001, 5.314690000000041",100.47998,5.31469,Pulau Pinang,Seberang Perai Tengah,P.045 Bukit Mertajam,N.14 Machang Bubuk,hotspot,"DEWAN JKKK ALMA (DUN MACHANG BUBUK), nan",N.14 Machang Bubuk,5.319744921,100.4768727,0.659,TRUE
POINT (100.4672 5.312560000000076),"Taman Sukun, Bukit Mertajam, Seberang Perai Tengah, Pulau Pinang",Taman Sukun,"100.4672, 5.312560000000076",100.4672,5.31256,Pulau Pinang,Seberang Perai Tengah,P.045 Bukit Mertajam,N.14 Machang Bubuk,hotspot,"DEWAN JKKK ALMA (DUN MACHANG BUBUK), nan",N.14 Machang Bubuk,5.319744921,100.4768727,1.336,TRUE
POINT (100.4673200000001 5.316210000000069),"Taman Amra, Bukit Mertajam, Seberang Perai Tengah, Pulau Pinang",Taman Amra,"100.4673200000001, 5.316210000000069",100.46732,5.31621,Pulau Pinang,Seberang Perai Tengah,P.045 Bukit Mertajam,N.14 Machang Bubuk,hotspot,"DEWAN JKKK ALMA (DUN MACHANG BUBUK), nan",N.14 Machang Bubuk,5.319744921,100.4768727,1.128,TRUE
POINT (100.4590603520001 5.364177399000027),"Seberang Perai Tengah, Pulau Pinang",Taman Murni,"100.4590603520001, 5.364177399000027",100.4590604,5.364177399,Pulau Pinang,Seberang Perai Tengah,P.045 Bukit Mertajam,N.15 Padang Lalang,hotspot,"SEK. MEN. KEB. JIT SIN (DUN PADANG LALANG), TAMAN RAMBAI / TAMAN DESA DAMAI",N.10 Seberang Jaya,5.36858,100.44271,1.875,FALSE
POINT (100.4885100000001 5.323060000000055),"Taman Alma Ria, Bukit Mertajam, Seberang Perai Tengah, Pulau Pinang",Taman Alma Ria,"100.4885100000001, 5.323060000000055",100.48851,5.32306,Pulau Pinang,Seberang Perai Tengah,P.045 Bukit Mertajam,N.14 Machang Bubuk,hotspot,"DEWAN JKKK ALMA (DUN MACHANG BUBUK), nan",N.14 Machang Bubuk,5.319744921,100.4768727,1.34,TRUE
POINT (100.4716000000001 5.317530000000033),"Taman Sukun Indah, Bukit Mertajam, Seberang Perai Tengah, Pulau Pinang",Taman Sukun Indah,"100.4716000000001, 5.317530000000033",100.4716,5.31753,Pulau Pinang,Seberang Perai Tengah,P.045 Bukit Mertajam,N.14 Machang Bubuk,hotspot,"DEWAN JKKK ALMA (DUN MACHANG BUBUK), nan",N.14 Machang Bubuk,5.319744921,100.4768727,0.634,TRUE
POINT (100.4810600000001 5.319670000000031),"Taman Seri Impian, Bukit Mertajam, Seberang Perai Tengah, Pulau Pinang",Taman Seri Impian,"100.4810600000001, 5.319670000000031",100.48106,5.31967,Pulau Pinang,Seberang Perai Tengah,P.045 Bukit Mertajam,N.14 Machang Bubuk,hotspot,"DEWAN JKKK ALMA (DUN MACHANG BUBUK), nan",N.14 Machang Bubuk,5.319744921,100.4768727,0.464,TRUE
POINT (100.4622900000001 5.31940000000003),"Taman Markisah, Bukit Mertajam, Seberang Perai Tengah, Pulau Pinang",Taman Markisah,"100.4622900000001, 5.31940000000003",100.46229,5.3194,Pulau Pinang,Seberang Perai Tengah,P.045 Bukit Mertajam,N.14 Machang Bubuk,hotspot,"DEWAN JKKK ALMA (DUN MACHANG BUBUK), nan",N.14 Machang Bubuk,5.319744921,100.4768727,1.615,TRUE
POINT (100.4740200000001 5.318500000000029),"Taman Seri Kijang, Bukit Mertajam, Seberang Perai Tengah, Pulau Pinang",Taman Seri Kijang,"100.4740200000001, 5.318500000000029",100.47402,5.3185,Pulau Pinang,Seberang Perai Tengah,P.045 Bukit Mertajam,N.14 Machang Bubuk,hotspot,"DEWAN JKKK ALMA (DUN MACHANG BUBUK), nan",N.14 Machang Bubuk,5.319744921,100.4768727,0.345,TRUE
POINT (100.4747400000001 5.304300000000069),"Taman Usaha, Bukit Mertajam, Seberang Perai Tengah, Pulau Pinang",Taman Usaha,"100.4747400000001, 5.304300000000069",100.47474,5.3043,Pulau Pinang,Seberang Perai Tengah,P.045 Bukit Mertajam,N.14 Machang Bubuk,hotspot,"DEWAN JKKK ALMA (DUN MACHANG BUBUK), nan",N.14 Machang Bubuk,5.319744921,100.4768727,1.734,TRUE
POINT (100.4681680460893 5.298500943003261),"Jalan Usaha Jaya, Tmn Perindustrian Ringan Usahajaya, Bukit Mertajam, Seberang Perai Tengah, 14000, Pulau Pinang",Taman Usaha Jaya,"100.4681680460893, 5.298500943003261",100.468168,5.298500943,Pulau Pinang,Seberang Perai Tengah,P.046 Batu Kawan,N.17 Bukit Tengah,hotspot,"SEKOLAH KEBANGSAAN TAMAN MERAK, TAMAN MERAK JAYA DAN KAWASAN SEKITARNYA",N.18 Bukit Tambun,5.278827201,100.4582543,2.448,TRUE
POINT (100.4780650699875 5.300740043307066),"Jalan Tinggi, Kampung Permatang Tinggi, Bukit Mertajam, Seberang Perai Tengah, 14000, Pulau Pinang",Kawasan Perindustrian Ringan Alma Pmtg. Tinggi (Jalan Pala),"100.4780650699875, 5.300740043307066",100.4780651,5.300740043,Pulau Pinang,Seberang Perai Tengah,P.045 Bukit Mertajam,N.14 Machang Bubuk,hotspot,"DEWAN JKKK ALMA (DUN MACHANG BUBUK), nan",N.14 Machang Bubuk,5.319744921,100.4768727,2.117,TRUE
POINT (100.4848900000001 5.306490000000053),"Taman Impian Indah, Bukit Mertajam, Seberang Perai Tengah, Pulau Pinang",Taman Impian Indah,"100.4848900000001, 5.306490000000053",100.48489,5.30649,Pulau Pinang,Seberang Perai Tengah,P.045 Bukit Mertajam,N.14 Machang Bubuk,hotspot,"DEWAN JKKK ALMA (DUN MACHANG BUBUK), nan",N.14 Machang Bubuk,5.319744921,100.4768727,1.721,TRUE
POINT (100.48132 5.309420000000046),"Taman Impian Ria, Bukit Mertajam, Seberang Perai Tengah, Pulau Pinang",Taman Impian Ria,"100.48132, 5.309420000000046",100.48132,5.30942,Pulau Pinang,Seberang Perai Tengah,P.045 Bukit Mertajam,N.14 Machang Bubuk,hotspot,"DEWAN JKKK ALMA (DUN MACHANG BUBUK), nan",N.14 Machang Bubuk,5.319744921,100.4768727,1.249,TRUE
POINT (100.4767900000001 5.301130000000057),Permatang Tinggi,Perkampungan Pmtg. Tinggi,"100.4767900000001, 5.301130000000057",100.47679,5.30113,Pulau Pinang,Seberang Perai Tengah,P.045 Bukit Mertajam,N.14 Machang Bubuk,hotspot,"DEWAN JKKK ALMA (DUN MACHANG BUBUK), nan",N.14 Machang Bubuk,5.319744921,100.4768727,2.07,TRUE
POINT (100.3779900000001 5.374360000000024),"Kawasan Perindustrian Prai, Perai, Seberang Perai Tengah, Pulau Pinang",Kawasan Perindustrian Perai,"100.3779900000001, 5.374360000000024",100.37799,5.37436,Pulau Pinang,Seberang Perai Tengah,P.046 Batu Kawan,N.16 Perai,hotspot,"SEK. KEB. JALAN BARU (DUN PERAI), JALAN BARU, PERAI",N.16 Perai,5.3852,100.38326,1.339,TRUE
POINT (100.52538 5.292580000000044),"Kampung Sepulau, Simpang Ampat, Seberang Perai Selatan, Pulau Pinang",Kg. Sepulau,"100.52538, 5.292580000000044",100.52538,5.29258,Pulau Pinang,Seberang Perai Selatan,P.047 Nibong Tebal,N.20 Sungai Bakap,hotspot,"SEKOLAH KEBANGSAAN BANDAR TASEK MUTIARA, PERUMAHAN BANDAR TASEK MUTIARA FASA1 HINGGA 9KAMPUNG TIGA KONGSI",N.20 Sungai Bakap,5.276655,100.5069513,2.702,TRUE
POINT (100.4778169780001 5.20881617200007),"Seberang Perai Selatan, Pulau Pinang",Jalan Persekutuan ,"100.4778169780001, 5.20881617200007",100.477817,5.208816172,Pulau Pinang,Seberang Perai Selatan,P.047 Nibong Tebal,N.19 Jawi,hotspot,"SEKOLAH KEBANGSAAN KELEDANG JAYA, CHANGKAT DANKAWASAN SEKITARNYA",N.19 Jawi,5.208955818,100.4639866,1.532,TRUE
POINT (100.4832900000001 5.284530000000075),"Bandar Tasek Mutiara, Simpang Ampat, Seberang Perai Selatan, Pulau Pinang",Bandar Tasek Mutiara (Parit A1),"100.4832900000001, 5.284530000000075",100.48329,5.28453,Pulau Pinang,Seberang Perai Selatan,P.047 Nibong Tebal,N.20 Sungai Bakap,hotspot,"SEK MEN TASEK, nan",N.20 Sungai Bakap,5.279856525,100.5025455,2.194,TRUE
POINT (100.4756800000001 5.277060000000063),"Taman Jentayu, Simpang Ampat, Seberang Perai Selatan, Pulau Pinang",Taman Jentayu,"100.4756800000001, 5.277060000000063",100.47568,5.27706,Pulau Pinang,Seberang Perai Selatan,P.046 Batu Kawan,N.18 Bukit Tambun,hotspot,"SEKOLAH KEBANGSAAN BUKIT TAMBUN, BUKIT TAMBUN DAN KAWASAN SEKITARNYA",N.18 Bukit Tambun,5.27179,100.4601,1.822,TRUE
POINT (100.4763500000001 5.287670000000048),"Kampung Baru Simpang Empat, Simpang Ampat, Seberang Perai Selatan, Pulau Pinang",Kg. Baru Simpang Ampat (Parit A1),"100.4763500000001, 5.287670000000048",100.47635,5.28767,Pulau Pinang,Seberang Perai Selatan,P.046 Batu Kawan,N.18 Bukit Tambun,hotspot,"SEKOLAH KEBANGSAAN TAMAN MERAK, TAMAN MERAK JAYA DAN KAWASAN SEKITARNYA",N.18 Bukit Tambun,5.278827201,100.4582543,2.232,TRUE
POINT (100.5225978464884 5.163669389120841),"Jalan Kampung, Perkampungan Sungai Kechil, Nibong Tebal, Seberang Perai Selatan, 14300, Pulau Pinang",Kampung Sethu,"100.5225978464884, 5.163669389120841",100.5225978,5.163669389,Pulau Pinang,Seberang Perai Selatan,P.047 Nibong Tebal,N.20 Sungai Bakap,hotspot,"KOLEJ VOKASIONAL NIBONG TEBAL, JALAN BUKIT PANCHOR DANKAWASAN SEKITARNYA",N.19 Jawi,5.169502667,100.4851929,4.193,TRUE
POINT (100.5225978464884 5.163669389120841),"Jalan Kampung, Perkampungan Sungai Kechil, Nibong Tebal, Seberang Perai Selatan, 14300, Pulau Pinang",Kampung Selut,"100.5225978464884, 5.163669389120841",100.5225978,5.163669389,Pulau Pinang,Seberang Perai Selatan,P.047 Nibong Tebal,N.20 Sungai Bakap,hotspot,"KOLEJ VOKASIONAL NIBONG TEBAL, JALAN BUKIT PANCHOR DANKAWASAN SEKITARNYA",N.19 Jawi,5.169502667,100.4851929,4.193,TRUE
POINT (100.4963935505006 5.187675720210192),"Persimpangan Jawi, Nibong Tebal, Seberang Perai Selatan, 14300, Pulau Pinang",Kampung Jawi,"100.4963935505006, 5.187675720210192",100.4963936,5.18767572,Pulau Pinang,Seberang Perai Selatan,P.047 Nibong Tebal,N.19 Jawi,hotspot,"KOLEJ VOKASIONAL NIBONG TEBAL, JALAN BUKIT PANCHOR DANKAWASAN SEKITARNYA",N.19 Jawi,5.169502667,100.4851929,2.371,TRUE
POINT (100.53808 5.206880000000069),"Taman Sungai Duri Permai, Sungai Jawi, Seberang Perai Selatan, Pulau Pinang",Taman Sg.Duri Permai,"100.53808, 5.206880000000069",100.53808,5.20688,Pulau Pinang,Seberang Perai Selatan,P.047 Nibong Tebal,N.20 Sungai Bakap,hotspot,"SEKOLAH RENDAH JENIS KEBANGSAAN (C) CHONG KUANG, SUNGAI BAKAP DAN KAWASAN SEKITARNYA",N.18 Bukit Tambun,5.2308593,100.4968012,5.292,TRUE
POINT (100.49386 5.198510000000056),"Taman Jawi Jaya, Sungai Jawi, Seberang Perai Selatan, Pulau Pinang",Taman Jawi Jaya,"100.49386, 5.198510000000056",100.49386,5.19851,Pulau Pinang,Seberang Perai Selatan,P.047 Nibong Tebal,N.19 Jawi,hotspot,"KOLEJ VOKASIONAL NIBONG TEBAL, JALAN BUKIT PANCHOR DANKAWASAN SEKITARNYA",N.19 Jawi,5.169502667,100.4851929,3.365,TRUE
POINT (100.5336500000001 5.208890000000054),"Taman Sungai Duri Indah, Sungai Jawi, Seberang Perai Selatan, Pulau Pinang",Taman Sg. Duri Indah,"100.5336500000001, 5.208890000000054",100.53365,5.20889,Pulau Pinang,Seberang Perai Selatan,P.047 Nibong Tebal,N.20 Sungai Bakap,hotspot,"SEKOLAH RENDAH JENIS KEBANGSAAN (C) CHONG KUANG, SUNGAI BAKAP DAN KAWASAN SEKITARNYA",N.18 Bukit Tambun,5.2308593,100.4968012,4.756,TRUE
POINT (100.4957800000001 5.213160000000073),"Taman Desa Jawi, Sungai Jawi, Seberang Perai Selatan, Pulau Pinang",Taman Desa Jawi,"100.4957800000001, 5.213160000000073",100.49578,5.21316,Pulau Pinang,Seberang Perai Selatan,P.047 Nibong Tebal,N.19 Jawi,hotspot,"SEKOLAH RENDAH JENIS KEBANGSAAN (C) CHONG KUANG, SUNGAI BAKAP DAN KAWASAN SEKITARNYA",N.18 Bukit Tambun,5.2308593,100.4968012,1.971,TRUE
POINT (100.5299908107747 5.213644744924823),"Jalan Kampung Masjid, Sungai Jawi, Seberang Perai Selatan, 14200, Pulau Pinang",Kampung Masjid,"100.5299908107747, 5.213644744924823",100.5299908,5.213644745,Pulau Pinang,Seberang Perai Selatan,P.047 Nibong Tebal,N.20 Sungai Bakap,hotspot,"SEKOLAH RENDAH JENIS KEBANGSAAN (C) CHONG KUANG, SUNGAI BAKAP DAN KAWASAN SEKITARNYA",N.18 Bukit Tambun,5.2308593,100.4968012,4.144,TRUE
POINT (100.4914400000001 5.235910000000047),"Taman Seri Aman, Sungai Jawi, Seberang Perai Selatan, Pulau Pinang",Taman Seri Aman,"100.4914400000001, 5.235910000000047",100.49144,5.23591,Pulau Pinang,Seberang Perai Selatan,P.046 Batu Kawan,N.18 Bukit Tambun,hotspot,"SEKOLAH MENENGAH VALDOR , SUNGAI BAKAPVALDOR DANKAWASAN SEKITARNYA",N.18 Bukit Tambun,5.239521757,100.4927819,0.428,TRUE
POINT (100.496585814921 5.203405769449904),"Jalan Sungai Bakap, Taman Jawi Jaya, Sungai Jawi, Seberang Perai Selatan, 14200, Pulau Pinang",Taman Sungai Bakap Indah,"100.496585814921, 5.203405769449904",100.4965858,5.203405769,Pulau Pinang,Seberang Perai Selatan,P.047 Nibong Tebal,N.19 Jawi,hotspot,"SEKOLAH RENDAH JENIS KEBANGSAAN (C) CHONG KUANG, SUNGAI BAKAP DAN KAWASAN SEKITARNYA",N.18 Bukit Tambun,5.2308593,100.4968012,3.053,TRUE
POINT (100.4933600000001 5.22565000000003),"Kampung Masjid Baru, Sungai Jawi, Seberang Perai Selatan, Pulau Pinang",Kg. Masjid Baru,"100.4933600000001, 5.22565000000003",100.49336,5.22565,Pulau Pinang,Seberang Perai Selatan,P.046 Batu Kawan,N.18 Bukit Tambun,hotspot,"SEKOLAH RENDAH JENIS KEBANGSAAN (C) CHONG KUANG, SUNGAI BAKAP DAN KAWASAN SEKITARNYA",N.18 Bukit Tambun,5.2308593,100.4968012,0.693,TRUE
POINT (100.4772800000001 5.164810000000045),"Kampung Pengkalan, Nibong Tebal, Seberang Perai Selatan, Pulau Pinang",Kg. Pengkalan,"100.4772800000001, 5.164810000000045",100.47728,5.16481,Pulau Pinang,Seberang Perai Selatan,P.047 Nibong Tebal,N.19 Jawi,hotspot,"SEKOLAH MENEGAH TUNKU ABDUL RAHMAN, NIBONG TEBAL KAMPUNG SANGLANG",N.19 Jawi,5.16868,100.47806,0.439,TRUE
POINT (100.4893200000001 5.211720000000071),"Kampung Baru Titi Hitam, Sungai Jawi, Seberang Perai Selatan, Pulau Pinang",Kg. Titi Hitam,"100.4893200000001, 5.211720000000071",100.48932,5.21172,Pulau Pinang,Seberang Perai Selatan,P.047 Nibong Tebal,N.19 Jawi,hotspot,"SEKOLAH RENDAH JENIS KEBANGSAAN (C) CHONG KUANG, SUNGAI BAKAP DAN KAWASAN SEKITARNYA",N.18 Bukit Tambun,5.2308593,100.4968012,2.284,TRUE
POINT (100.4903300000001 5.139520000000061),"Taman Pekaka, Nibong Tebal, Seberang Perai Selatan, Pulau Pinang",Taman Pekaka (Transkrian),"100.4903300000001, 5.139520000000061",100.49033,5.13952,Pulau Pinang,Seberang Perai Selatan,P.047 Nibong Tebal,N.21 Sungai Acheh,hotspot,"SEKOLAH MENEGAH KEBANGSAAN SAUJANA INDAH , LADANG TRANSKRIANTAMAN SEMPADANTAMAN ILMU",N.21 Sungai Acheh,5.134894734,100.486625,0.658,TRUE
POINT (100.4778169780001 5.20881617200007),"Seberang Perai Selatan, Pulau Pinang",Taman Indrawasih,"100.4778169780001, 5.20881617200007",100.477817,5.208816172,Pulau Pinang,Seberang Perai Selatan,P.047 Nibong Tebal,N.19 Jawi,hotspot,"SEKOLAH KEBANGSAAN KELEDANG JAYA, CHANGKAT DANKAWASAN SEKITARNYA",N.19 Jawi,5.208955818,100.4639866,1.532,TRUE
POINT (100.4860200000001 5.175540000000069),"Taman Seri Bayu, Nibong Tebal, Seberang Perai Selatan, Pulau Pinang",Taman Seri Bayu,"100.4860200000001, 5.175540000000069",100.48602,5.17554,Pulau Pinang,Seberang Perai Selatan,P.047 Nibong Tebal,N.19 Jawi,hotspot,"KOLEJ VOKASIONAL NIBONG TEBAL, JALAN BUKIT PANCHOR DANKAWASAN SEKITARNYA",N.19 Jawi,5.169502667,100.4851929,0.678,TRUE
POINT (100.4753900000001 5.168310000000076),"Taman Sentosa, Nibong Tebal, Seberang Perai Selatan, Pulau Pinang",Taman Sentosa,"100.4753900000001, 5.168310000000076",100.47539,5.16831,Pulau Pinang,Seberang Perai Selatan,P.047 Nibong Tebal,N.19 Jawi,hotspot,"SEKOLAH RENDAH JENIS KEBANGSAAN (CINA) PAI TEIK, NIBONG TEBALKAMPUNG BYRAMLADANG BYRAMKAMPUNG ARJUNAN",N.19 Jawi,5.169301448,100.4746661,0.136,TRUE
POINT (100.4838300000001 5.167210000000068),"Taman Permai, Nibong Tebal, Seberang Perai Selatan, Pulau Pinang",Taman Permai,"100.4838300000001, 5.167210000000068",100.48383,5.16721,Pulau Pinang,Seberang Perai Selatan,P.047 Nibong Tebal,N.19 Jawi,hotspot,"KOLEJ VOKASIONAL NIBONG TEBAL, JALAN BUKIT PANCHOR DANKAWASAN SEKITARNYA",N.19 Jawi,5.169502667,100.4851929,0.296,TRUE
POINT (100.4724800000001 5.168940000000021),"Taman Nibong Tebal, Nibong Tebal, Seberang Perai Selatan, Pulau Pinang",Taman Nibong Tebal,"100.4724800000001, 5.168940000000021",100.47248,5.16894,Pulau Pinang,Seberang Perai Selatan,P.047 Nibong Tebal,N.19 Jawi,hotspot,"SEKOLAH RENDAH JENIS KEBANGSAAN (CINA) PAI TEIK, NIBONG TEBALKAMPUNG BYRAMLADANG BYRAMKAMPUNG ARJUNAN",N.19 Jawi,5.169301448,100.4746661,0.245,TRUE
POINT (100.4917300000001 5.154870000000074),Taman Ilmu,Taman Ilmu,"100.4917300000001, 5.154870000000074",100.49173,5.15487,Pulau Pinang,Seberang Perai Selatan,P.047 Nibong Tebal,N.21 Sungai Acheh,hotspot,"KOLEJ VOKASIONAL NIBONG TEBAL, JALAN BUKIT PANCHOR DANKAWASAN SEKITARNYA",N.19 Jawi,5.169502667,100.4851929,1.781,TRUE
POINT (100.4838300000001 5.167210000000068),"Taman Permai, Nibong Tebal, Seberang Perai Selatan, Pulau Pinang",Taman Permai,"100.4838300000001, 5.167210000000068",100.48383,5.16721,Pulau Pinang,Seberang Perai Selatan,P.047 Nibong Tebal,N.19 Jawi,hotspot,"KOLEJ VOKASIONAL NIBONG TEBAL, JALAN BUKIT PANCHOR DANKAWASAN SEKITARNYA",N.19 Jawi,5.169502667,100.4851929,0.296,TRUE
POINT (100.4771400000001 5.162410000000023),"Kampung Haji Omar, Nibong Tebal, Seberang Perai Selatan, Pulau Pinang",Kg. Haji Omar,"100.4771400000001, 5.162410000000023",100.47714,5.16241,Pulau Pinang,Seberang Perai Selatan,P.047 Nibong Tebal,N.21 Sungai Acheh,hotspot,"SEKOLAH KEBANGSAAN NIBONG TEBAL, TELUK IPIL NIBONG TEBAL DANKAWASAN SEKITARNYA",N.19 Jawi,5.164058335,100.4733529,0.458,TRUE
POINT (100.4778169780001 5.20881617200007),"Seberang Perai Selatan, Pulau Pinang",Kg. Haji Isa,"100.4778169780001, 5.20881617200007",100.477817,5.208816172,Pulau Pinang,Seberang Perai Selatan,P.047 Nibong Tebal,N.19 Jawi,hotspot,"SEKOLAH KEBANGSAAN KELEDANG JAYA, CHANGKAT DANKAWASAN SEKITARNYA",N.19 Jawi,5.208955818,100.4639866,1.532,TRUE
POINT (100.4849 5.177180000000021),"Taman Bukit Panchur, Nibong Tebal, Seberang Perai Selatan, Pulau Pinang",Taman Bukit Panchor Indah,"100.4849, 5.177180000000021",100.4849,5.17718,Pulau Pinang,Seberang Perai Selatan,P.047 Nibong Tebal,N.19 Jawi,hotspot,"KOLEJ VOKASIONAL NIBONG TEBAL, JALAN BUKIT PANCHOR DANKAWASAN SEKITARNYA",N.19 Jawi,5.169502667,100.4851929,0.854,TRUE
POINT (100.4597600000001 5.154780000000073),"Kampung Tanjung Berembang, Nibong Tebal, Seberang Perai Selatan, Pulau Pinang",Kg. Tanjung Berembang,"100.4597600000001, 5.154780000000073",100.45976,5.15478,Pulau Pinang,Seberang Perai Selatan,P.047 Nibong Tebal,N.21 Sungai Acheh,hotspot,"SEKOLAH KEBANGSAAN NIBONG TEBAL, TELUK IPIL NIBONG TEBAL DANKAWASAN SEKITARNYA",N.19 Jawi,5.164058335,100.4733529,1.825,TRUE
POINT (100.42296 5.152000000000044),Sungai Udang,Kg. Sg. Udang (Sg. Acheh),"100.42296, 5.152000000000044",100.42296,5.152,Pulau Pinang,Seberang Perai Selatan,P.047 Nibong Tebal,N.21 Sungai Acheh,hotspot,"SEKOLAH KEBANGSAAN SUNGAI ACHEH, SUNGAI ACHEH DANKAWASAN SEKITARNYA",N.21 Sungai Acheh,5.146031765,100.4186127,0.82,TRUE
POINT (100.5138200000001 5.167060000000049),"Kampung Sungai Kechil, Nibong Tebal, Seberang Perai Selatan, Pulau Pinang",Kampung Sungai Kecil,"100.5138200000001, 5.167060000000049",100.51382,5.16706,Pulau Pinang,Seberang Perai Selatan,P.047 Nibong Tebal,N.20 Sungai Bakap,hotspot,"KOLEJ VOKASIONAL NIBONG TEBAL, JALAN BUKIT PANCHOR DANKAWASAN SEKITARNYA",N.19 Jawi,5.169502667,100.4851929,3.182,TRUE
POINT (100.5225978464884 5.163669389120841),"Jalan Kampung, Perkampungan Sungai Kechil, Nibong Tebal, Seberang Perai Selatan, 14300, Pulau Pinang",Kampung Nenas,"100.5225978464884, 5.163669389120841",100.5225978,5.163669389,Pulau Pinang,Seberang Perai Selatan,P.047 Nibong Tebal,N.20 Sungai Bakap,hotspot,"KOLEJ VOKASIONAL NIBONG TEBAL, JALAN BUKIT PANCHOR DANKAWASAN SEKITARNYA",N.19 Jawi,5.169502667,100.4851929,4.193,TRUE
POINT (100.54375 5.170150000000035),"Kampung Sungai Buaya, Nibong Tebal, Seberang Perai Selatan, Pulau Pinang",Kampung Sg. Buaya,"100.54375, 5.170150000000035",100.54375,5.17015,Pulau Pinang,Seberang Perai Selatan,P.047 Nibong Tebal,N.20 Sungai Bakap,hotspot,"KOLEJ VOKASIONAL NIBONG TEBAL, JALAN BUKIT PANCHOR DANKAWASAN SEKITARNYA",N.19 Jawi,5.169502667,100.4851929,6.485,TRUE
POINT (100.52675 5.215360000000032),"Kampung Sungai Baong, Sungai Jawi, Seberang Perai Selatan, Pulau Pinang",Kampung Sungai Baong,"100.52675, 5.215360000000032",100.52675,5.21536,Pulau Pinang,Seberang Perai Selatan,P.047 Nibong Tebal,N.20 Sungai Bakap,hotspot,"SEKOLAH RENDAH JENIS KEBANGSAAN (C) CHONG KUANG, SUNGAI BAKAP DAN KAWASAN SEKITARNYA",N.18 Bukit Tambun,5.2308593,100.4968012,3.737,TRUE
POINT (100.4780600000001 5.168680000000052),"Nibong Tebal, Seberang Perai Selatan, Pulau Pinang",Kawasan Kilang Nibong Tebal Paper Mail,"100.4780600000001, 5.168680000000052",100.47806,5.16868,Pulau Pinang,Seberang Perai Selatan,P.047 Nibong Tebal,N.19 Jawi,hotspot,"SEKOLAH MENEGAH TUNKU ABDUL RAHMAN, NIBONG TEBAL KAMPUNG SANGLANG",N.19 Jawi,5.16868,100.47806,0,TRUE
POINT (100.4814900000001 5.165760000000034),"Kampung Sanglang, Nibong Tebal, Seberang Perai Selatan, Pulau Pinang",Kg. Sanglang,"100.4814900000001, 5.165760000000034",100.48149,5.16576,Pulau Pinang,Seberang Perai Selatan,P.047 Nibong Tebal,N.19 Jawi,hotspot,"SEKOLAH MENEGAH TUNKU ABDUL RAHMAN, NIBONG TEBAL KAMPUNG SANGLANG",N.19 Jawi,5.16868,100.47806,0.5,TRUE
POINT (100.48204 5.168700000000058),"Taman Veerapen, Nibong Tebal, Seberang Perai Selatan, Pulau Pinang",Taman Veerapen,"100.48204, 5.168700000000058",100.48204,5.1687,Pulau Pinang,Seberang Perai Selatan,P.047 Nibong Tebal,N.19 Jawi,hotspot,"KOLEJ VOKASIONAL NIBONG TEBAL, JALAN BUKIT PANCHOR DANKAWASAN SEKITARNYA",N.19 Jawi,5.169502667,100.4851929,0.36,TRUE
POINT (100.4830700000001 5.172030000000063),"Taman Penting, Nibong Tebal, Seberang Perai Selatan, Pulau Pinang",Taman Penting,"100.4830700000001, 5.172030000000063",100.48307,5.17203,Pulau Pinang,Seberang Perai Selatan,P.047 Nibong Tebal,N.19 Jawi,hotspot,"KOLEJ VOKASIONAL NIBONG TEBAL, JALAN BUKIT PANCHOR DANKAWASAN SEKITARNYA",N.19 Jawi,5.169502667,100.4851929,0.366,TRUE
POINT (100.4838300000001 5.167210000000068),"Taman Permai, Nibong Tebal, Seberang Perai Selatan, Pulau Pinang",Taman Permai,"100.4838300000001, 5.167210000000068",100.48383,5.16721,Pulau Pinang,Seberang Perai Selatan,P.047 Nibong Tebal,N.19 Jawi,hotspot,"KOLEJ VOKASIONAL NIBONG TEBAL, JALAN BUKIT PANCHOR DANKAWASAN SEKITARNYA",N.19 Jawi,5.169502667,100.4851929,0.296,TRUE
POINT (100.4801800000001 5.169760000000053),"Kampung Stesen, Nibong Tebal, Seberang Perai Selatan, Pulau Pinang",Kg. Stesen,"100.4801800000001, 5.169760000000053",100.48018,5.16976,Pulau Pinang,Seberang Perai Selatan,P.047 Nibong Tebal,N.19 Jawi,hotspot,"SEKOLAH MENEGAH TUNKU ABDUL RAHMAN, NIBONG TEBAL KAMPUNG SANGLANG",N.19 Jawi,5.16868,100.47806,0.264,TRUE
